{
 "type": "FeatureCollection",
 "features": [
  {
   "type": "Feature",
   "properties": {
    "nume": "",
    "observatii": "",
    "culoare": "#dffb09",
    "lungime_m": 658.79
   },
   "geometry": {
    "type": "LineString",
    "coordinates": [
     [
      26.1643481,
      44.9520131
     ],
     [
      26.1665154,
      44.952742
     ],
     [
      26.1694765,
      44.9536531
     ],
     [
      26.1720085,
      44.9529394
     ]
    ]
   }
  },
  {
   "type": "Feature",
   "properties": {
    "nume": "",
    "observatii": "",
    "culoare": "#f9a825",
    "X_st70": 384300.472,
    "Y_st70": 591747.23
   },
   "geometry": {
    "type": "Point",
    "coordinates": [
     26.1613441,
     44.9525142
    ]
   }
  },
  {
   "type": "Feature",
   "properties": {
    "nume": "",
    "observatii": "",
    "culoare": "#fbff00",
    "lungime_m": 29532.41
   },
   "geometry": {
    "type": "LineString",
    "coordinates": [
     [
      26.1613441,
      44.952575
     ],
     [
      26.1620736,
      44.951941
     ],
     [
      26.1643213,
      44.9520207
     ],
     [
      26.1657,
      44.95278
     ],
     [
      26.1710536,
      44.9529242
     ],
     [
      26.1806774,
      44.9507755
     ],
     [
      26.1982834,
      44.9488165
     ],
     [
      26.2079984,
      44.9476851
     ],
     [
      26.2093019,
      44.9475408
     ],
     [
      26.2113672,
      44.9474838
     ],
     [
      26.2175953,
      44.9474497
     ],
     [
      26.2183678,
      44.946136
     ],
     [
      26.2304807,
      44.9448071
     ],
     [
      26.2319183,
      44.9448071
     ],
     [
      26.2359738,
      44.9446552
     ],
     [
      26.2389457,
      44.9445869
     ],
     [
      26.2428296,
      44.9452779
     ],
     [
      26.2457585,
      44.9435693
     ],
     [
      26.2714005,
      44.9501528
     ],
     [
      26.3018972,
      44.9585501
     ],
     [
      26.3165796,
      44.9626458
     ],
     [
      26.3270241,
      44.9654925
     ],
     [
      26.340242,
      44.969174
     ],
     [
      26.3433266,
      44.9700697
     ],
     [
      26.3436109,
      44.9702557
     ],
     [
      26.3477039,
      44.9715157
     ],
     [
      26.3481653,
      44.9720546
     ],
     [
      26.3526928,
      44.97336
     ],
     [
      26.3758779,
      44.9795835
     ],
     [
      26.40697,
      44.9879233
     ],
     [
      26.4095557,
      44.9878171
     ],
     [
      26.4280951,
      44.9916793
     ],
     [
      26.4355946,
      44.9915958
     ],
     [
      26.4424396,
      44.9907384
     ],
     [
      26.4452076,
      44.9914668
     ],
     [
      26.4475679,
      44.9886138
     ],
     [
      26.4582968,
      44.9924836
     ],
     [
      26.4628673,
      44.9934851
     ],
     [
      26.4631248,
      44.9975062
     ],
     [
      26.4707851,
      45.0053504
     ],
     [
      26.4996672,
      45.0166217
     ]
    ]
   }
  }
 ]
}