{"type":"FeatureCollection","features":[{"type":"Feature","geometry":{"coordinates":[[26.164348,44.952013],[26.166515,44.952742],[26.169477,44.953653],[26.172009,44.952939]],"type":"LineString"},"properties":{"nume":"","observatii":"","culoare":"#dffb09","X_st70":null,"Y_st70":null,"lungime_m":658.79,"fisier":"desen_Consilier_2026-10-05-12-43.geojson","_s":{"f":"#85b66f","fo":0.0,"s":"#85b66f","so":1.0,"w":0.98,"r":5.0,"cap":"square","join":"bevel"}}},{"type":"Feature","geometry":{"coordinates":[[26.161344,44.952575],[26.162074,44.951941],[26.164321,44.952021],[26.1657,44.95278],[26.171054,44.952924],[26.180677,44.950776],[26.198283,44.948817],[26.207998,44.947685],[26.209302,44.947541],[26.211367,44.947484],[26.217595,44.94745],[26.218368,44.946136],[26.230481,44.944807],[26.231918,44.944807],[26.235974,44.944655],[26.238946,44.944587],[26.24283,44.945278],[26.245759,44.943569],[26.271401,44.950153],[26.301897,44.95855],[26.31658,44.962646],[26.327024,44.965493],[26.340242,44.969174],[26.343327,44.97007],[26.343611,44.970256],[26.347704,44.971516],[26.348165,44.972055],[26.352693,44.97336],[26.375878,44.979584],[26.40697,44.987923],[26.409556,44.987817],[26.428095,44.991679],[26.435595,44.991596],[26.44244,44.990738],[26.445208,44.991467],[26.447568,44.988614],[26.458297,44.992484],[26.462867,44.993485],[26.463125,44.997506],[26.470785,45.00535],[26.499667,45.016622]],"type":"LineString"},"properties":{"nume":"","observatii":"","culoare":"#fbff00","X_st70":null,"Y_st70":null,"lungime_m":29532.41,"fisier":"desen_Consilier_2026-10-05-12-43.geojson","_s":{"f":"#85b66f","fo":0.0,"s":"#85b66f","so":1.0,"w":0.98,"r":5.0,"cap":"square","join":"bevel"}}}]}