{"type":"FeatureCollection","features":[{"type":"Feature","geometry":{"coordinates":[25.632594,45.238062,0.0],"type":"Point"},"properties":{"tip_retea":"Gaze","stare":"Existent","operator":"Transgaz","adancime":null,"detalii":"PM - E.T. București","_s":{"f":"#beb297","fo":1.0,"s":"#232323","so":1.0,"w":0.0,"r":9.45,"ic":true,"icon":{"src":"data/symbols/transgaz_srm_scv_spc_pm_0.png","w":24,"h":24}},"_c":0}},{"type":"Feature","geometry":{"coordinates":[25.909507,44.836296,0.0],"type":"Point"},"properties":{"tip_retea":"Gaze","stare":"Existent","operator":"Transgaz","adancime":null,"detalii":"PM - E.T. București","_s":{"f":"#beb297","fo":1.0,"s":"#232323","so":1.0,"w":0.0,"r":9.45,"ic":true,"icon":{"src":"data/symbols/transgaz_srm_scv_spc_pm_0.png","w":24,"h":24}},"_c":0}},{"type":"Feature","geometry":{"coordinates":[26.017978,45.018666,0.0],"type":"Point"},"properties":{"tip_retea":"Gaze","stare":"Existent","operator":"Transgaz","adancime":null,"detalii":"PM - E.T. București","_s":{"f":"#beb297","fo":1.0,"s":"#232323","so":1.0,"w":0.0,"r":9.45,"ic":true,"icon":{"src":"data/symbols/transgaz_srm_scv_spc_pm_0.png","w":24,"h":24}},"_c":0}},{"type":"Feature","geometry":{"coordinates":[26.018074,45.019133,0.0],"type":"Point"},"properties":{"tip_retea":"Gaze","stare":"Existent","operator":"Transgaz","adancime":null,"detalii":"PM - E.T. București","_s":{"f":"#beb297","fo":1.0,"s":"#232323","so":1.0,"w":0.0,"r":9.45,"ic":true,"icon":{"src":"data/symbols/transgaz_srm_scv_spc_pm_0.png","w":24,"h":24}},"_c":0}},{"type":"Feature","geometry":{"coordinates":[26.161127,44.952716,0.0],"type":"Point"},"properties":{"tip_retea":"Gaze","stare":"Existent","operator":"Transgaz","adancime":null,"detalii":"PM - E.T. București","_s":{"f":"#beb297","fo":1.0,"s":"#232323","so":1.0,"w":0.0,"r":9.45,"ic":true,"icon":{"src":"data/symbols/transgaz_srm_scv_spc_pm_0.png","w":24,"h":24}},"_c":0}},{"type":"Feature","geometry":{"coordinates":[25.621401,45.280127,0.0],"type":"Point"},"properties":{"tip_retea":"Gaze","stare":"Existent","operator":"Transgaz","adancime":null,"detalii":"PM - E.T. București","_s":{"f":"#beb297","fo":1.0,"s":"#232323","so":1.0,"w":0.0,"r":9.45,"ic":true,"icon":{"src":"data/symbols/transgaz_srm_scv_spc_pm_0.png","w":24,"h":24}},"_c":0}},{"type":"Feature","geometry":{"coordinates":[25.621367,45.280183,0.0],"type":"Point"},"properties":{"tip_retea":"Gaze","stare":"Existent","operator":"Transgaz","adancime":null,"detalii":"PM - E.T. București","_s":{"f":"#beb297","fo":1.0,"s":"#232323","so":1.0,"w":0.0,"r":9.45,"ic":true,"icon":{"src":"data/symbols/transgaz_srm_scv_spc_pm_0.png","w":24,"h":24}},"_c":0}},{"type":"Feature","geometry":{"coordinates":[25.852723,44.852561,0.0],"type":"Point"},"properties":{"tip_retea":"Gaze","stare":"Existent","operator":"Transgaz","adancime":null,"detalii":"PM - E.T. București","_s":{"f":"#beb297","fo":1.0,"s":"#232323","so":1.0,"w":0.0,"r":9.45,"ic":true,"icon":{"src":"data/symbols/transgaz_srm_scv_spc_pm_0.png","w":24,"h":24}},"_c":0}},{"type":"Feature","geometry":{"coordinates":[25.852716,44.852355,0.0],"type":"Point"},"properties":{"tip_retea":"Gaze","stare":"Existent","operator":"Transgaz","adancime":null,"detalii":"PM - E.T. București","_s":{"f":"#beb297","fo":1.0,"s":"#232323","so":1.0,"w":0.0,"r":9.45,"ic":true,"icon":{"src":"data/symbols/transgaz_srm_scv_spc_pm_0.png","w":24,"h":24}},"_c":0}},{"type":"Feature","geometry":{"coordinates":[25.8526,44.85232,0.0],"type":"Point"},"properties":{"tip_retea":"Gaze","stare":"Existent","operator":"Transgaz","adancime":null,"detalii":"PM - E.T. București","_s":{"f":"#beb297","fo":1.0,"s":"#232323","so":1.0,"w":0.0,"r":9.45,"ic":true,"icon":{"src":"data/symbols/transgaz_srm_scv_spc_pm_0.png","w":24,"h":24}},"_c":0}},{"type":"Feature","geometry":{"coordinates":[26.161483,44.952731,0.0],"type":"Point"},"properties":{"tip_retea":"Gaze","stare":"Existent","operator":"Transgaz","adancime":null,"detalii":"PM - E.T. București","_s":{"f":"#beb297","fo":1.0,"s":"#232323","so":1.0,"w":0.0,"r":9.45,"ic":true,"icon":{"src":"data/symbols/transgaz_srm_scv_spc_pm_0.png","w":24,"h":24}},"_c":0}},{"type":"Feature","geometry":{"coordinates":[25.621495,45.280142,0.0],"type":"Point"},"properties":{"tip_retea":"Gaze","stare":"Existent","operator":"Transgaz","adancime":null,"detalii":"SCV - E.T. București","_s":{"f":"#e77148","fo":1.0,"s":"#232323","so":1.0,"w":0.0,"r":13.23,"ic":true,"icon":{"src":"data/symbols/transgaz_srm_scv_spc_pm_1.png","w":32,"h":32}},"_c":1}},{"type":"Feature","geometry":{"coordinates":[25.852709,44.852461,0.0],"type":"Point"},"properties":{"tip_retea":"Gaze","stare":"Existent","operator":"Transgaz","adancime":null,"detalii":"SCV - E.T. București","_s":{"f":"#e77148","fo":1.0,"s":"#232323","so":1.0,"w":0.0,"r":13.23,"ic":true,"icon":{"src":"data/symbols/transgaz_srm_scv_spc_pm_1.png","w":32,"h":32}},"_c":1}},{"type":"Feature","geometry":{"coordinates":[25.779127,44.978862,0.0],"type":"Point"},"properties":{"tip_retea":"Gaze","stare":"Existent","operator":"Transgaz","adancime":null,"detalii":"SCV - E.T. București","_s":{"f":"#e77148","fo":1.0,"s":"#232323","so":1.0,"w":0.0,"r":13.23,"ic":true,"icon":{"src":"data/symbols/transgaz_srm_scv_spc_pm_1.png","w":32,"h":32}},"_c":1}},{"type":"Feature","geometry":{"coordinates":[25.55854,45.324081,0.0],"type":"Point"},"properties":{"tip_retea":"Gaze","stare":"Existent","operator":"Transgaz","adancime":null,"detalii":"SPC - E.T. București","_s":{"f":"#ff9e17","fo":1.0,"s":"#232323","so":1.0,"w":0.0,"r":9.45,"ic":true,"icon":{"src":"data/symbols/transgaz_srm_scv_spc_pm_3.png","w":24,"h":24}},"_c":3}},{"type":"Feature","geometry":{"coordinates":[26.086672,44.954069,0.0],"type":"Point"},"properties":{"tip_retea":"Gaze","stare":"Existent","operator":"Transgaz","adancime":null,"detalii":"SPC - E.T. București","_s":{"f":"#ff9e17","fo":1.0,"s":"#232323","so":1.0,"w":0.0,"r":9.45,"ic":true,"icon":{"src":"data/symbols/transgaz_srm_scv_spc_pm_3.png","w":24,"h":24}},"_c":3}},{"type":"Feature","geometry":{"coordinates":[25.862029,44.832176,0.0],"type":"Point"},"properties":{"tip_retea":"Gaze","stare":"Existent","operator":"Transgaz","adancime":null,"detalii":"SPC - E.T. București","_s":{"f":"#ff9e17","fo":1.0,"s":"#232323","so":1.0,"w":0.0,"r":9.45,"ic":true,"icon":{"src":"data/symbols/transgaz_srm_scv_spc_pm_3.png","w":24,"h":24}},"_c":3}},{"type":"Feature","geometry":{"coordinates":[25.980864,44.88297,0.0],"type":"Point"},"properties":{"tip_retea":"Gaze","stare":"Existent","operator":"Transgaz","adancime":null,"detalii":"SPC - E.T. București","_s":{"f":"#ff9e17","fo":1.0,"s":"#232323","so":1.0,"w":0.0,"r":9.45,"ic":true,"icon":{"src":"data/symbols/transgaz_srm_scv_spc_pm_3.png","w":24,"h":24}},"_c":3}},{"type":"Feature","geometry":{"coordinates":[25.734832,45.055748,0.0],"type":"Point"},"properties":{"tip_retea":"Gaze","stare":"Existent","operator":"Transgaz","adancime":null,"detalii":"SPC - E.T. București","_s":{"f":"#ff9e17","fo":1.0,"s":"#232323","so":1.0,"w":0.0,"r":9.45,"ic":true,"icon":{"src":"data/symbols/transgaz_srm_scv_spc_pm_3.png","w":24,"h":24}},"_c":3}},{"type":"Feature","geometry":{"coordinates":[25.711726,45.135623,0.0],"type":"Point"},"properties":{"tip_retea":"Gaze","stare":"Existent","operator":"Transgaz","adancime":null,"detalii":"SPC - E.T. București","_s":{"f":"#ff9e17","fo":1.0,"s":"#232323","so":1.0,"w":0.0,"r":9.45,"ic":true,"icon":{"src":"data/symbols/transgaz_srm_scv_spc_pm_3.png","w":24,"h":24}},"_c":3}},{"type":"Feature","geometry":{"coordinates":[25.711729,45.135617,0.0],"type":"Point"},"properties":{"tip_retea":"Gaze","stare":"Existent","operator":"Transgaz","adancime":null,"detalii":"SPC - E.T. București","_s":{"f":"#ff9e17","fo":1.0,"s":"#232323","so":1.0,"w":0.0,"r":9.45,"ic":true,"icon":{"src":"data/symbols/transgaz_srm_scv_spc_pm_3.png","w":24,"h":24}},"_c":3}},{"type":"Feature","geometry":{"coordinates":[25.748276,45.085446,0.0],"type":"Point"},"properties":{"tip_retea":"Gaze","stare":"Existent","operator":"Transgaz","adancime":null,"detalii":"SPC - E.T. București","_s":{"f":"#ff9e17","fo":1.0,"s":"#232323","so":1.0,"w":0.0,"r":9.45,"ic":true,"icon":{"src":"data/symbols/transgaz_srm_scv_spc_pm_3.png","w":24,"h":24}},"_c":3}},{"type":"Feature","geometry":{"coordinates":[25.617768,45.270996,0.0],"type":"Point"},"properties":{"tip_retea":"Gaze","stare":"Existent","operator":"Transgaz","adancime":null,"detalii":"SPC - E.T. București","_s":{"f":"#ff9e17","fo":1.0,"s":"#232323","so":1.0,"w":0.0,"r":9.45,"ic":true,"icon":{"src":"data/symbols/transgaz_srm_scv_spc_pm_3.png","w":24,"h":24}},"_c":3}},{"type":"Feature","geometry":{"coordinates":[25.617768,45.270996,0.0],"type":"Point"},"properties":{"tip_retea":"Gaze","stare":"Existent","operator":"Transgaz","adancime":null,"detalii":"SPC - E.T. București","_s":{"f":"#ff9e17","fo":1.0,"s":"#232323","so":1.0,"w":0.0,"r":9.45,"ic":true,"icon":{"src":"data/symbols/transgaz_srm_scv_spc_pm_3.png","w":24,"h":24}},"_c":3}},{"type":"Feature","geometry":{"coordinates":[25.648376,45.193776,0.0],"type":"Point"},"properties":{"tip_retea":"Gaze","stare":"Existent","operator":"Transgaz","adancime":null,"detalii":"SPC - E.T. București","_s":{"f":"#ff9e17","fo":1.0,"s":"#232323","so":1.0,"w":0.0,"r":9.45,"ic":true,"icon":{"src":"data/symbols/transgaz_srm_scv_spc_pm_3.png","w":24,"h":24}},"_c":3}},{"type":"Feature","geometry":{"coordinates":[25.633707,45.187342,0.0],"type":"Point"},"properties":{"tip_retea":"Gaze","stare":"Existent","operator":"Transgaz","adancime":null,"detalii":"SPC - E.T. București","_s":{"f":"#ff9e17","fo":1.0,"s":"#232323","so":1.0,"w":0.0,"r":9.45,"ic":true,"icon":{"src":"data/symbols/transgaz_srm_scv_spc_pm_3.png","w":24,"h":24}},"_c":3}},{"type":"Feature","geometry":{"coordinates":[25.661742,45.119258,0.0],"type":"Point"},"properties":{"tip_retea":"Gaze","stare":"Existent","operator":"Transgaz","adancime":null,"detalii":"SPC - E.T. București","_s":{"f":"#ff9e17","fo":1.0,"s":"#232323","so":1.0,"w":0.0,"r":9.45,"ic":true,"icon":{"src":"data/symbols/transgaz_srm_scv_spc_pm_3.png","w":24,"h":24}},"_c":3}},{"type":"Feature","geometry":{"coordinates":[26.114824,44.938332,0.0],"type":"Point"},"properties":{"tip_retea":"Gaze","stare":"Existent","operator":"Transgaz","adancime":null,"detalii":"SPC - E.T. București","_s":{"f":"#ff9e17","fo":1.0,"s":"#232323","so":1.0,"w":0.0,"r":9.45,"ic":true,"icon":{"src":"data/symbols/transgaz_srm_scv_spc_pm_3.png","w":24,"h":24}},"_c":3}},{"type":"Feature","geometry":{"coordinates":[26.001838,44.903649,0.0],"type":"Point"},"properties":{"tip_retea":"Gaze","stare":"Existent","operator":"Transgaz","adancime":null,"detalii":"SPC - E.T. București","_s":{"f":"#ff9e17","fo":1.0,"s":"#232323","so":1.0,"w":0.0,"r":9.45,"ic":true,"icon":{"src":"data/symbols/transgaz_srm_scv_spc_pm_3.png","w":24,"h":24}},"_c":3}},{"type":"Feature","geometry":{"coordinates":[25.81029,44.922559,0.0],"type":"Point"},"properties":{"tip_retea":"Gaze","stare":"Existent","operator":"Transgaz","adancime":null,"detalii":"SPC - E.T. București","_s":{"f":"#ff9e17","fo":1.0,"s":"#232323","so":1.0,"w":0.0,"r":9.45,"ic":true,"icon":{"src":"data/symbols/transgaz_srm_scv_spc_pm_3.png","w":24,"h":24}},"_c":3}},{"type":"Feature","geometry":{"coordinates":[25.929839,44.865978,0.0],"type":"Point"},"properties":{"tip_retea":"Gaze","stare":"Existent","operator":"Transgaz","adancime":null,"detalii":"SPC - E.T. București","_s":{"f":"#ff9e17","fo":1.0,"s":"#232323","so":1.0,"w":0.0,"r":9.45,"ic":true,"icon":{"src":"data/symbols/transgaz_srm_scv_spc_pm_3.png","w":24,"h":24}},"_c":3}},{"type":"Feature","geometry":{"coordinates":[25.929838,44.865978,0.0],"type":"Point"},"properties":{"tip_retea":"Gaze","stare":"Existent","operator":"Transgaz","adancime":null,"detalii":"SPC - E.T. București","_s":{"f":"#ff9e17","fo":1.0,"s":"#232323","so":1.0,"w":0.0,"r":9.45,"ic":true,"icon":{"src":"data/symbols/transgaz_srm_scv_spc_pm_3.png","w":24,"h":24}},"_c":3}},{"type":"Feature","geometry":{"coordinates":[26.013437,44.884733,0.0],"type":"Point"},"properties":{"tip_retea":"Gaze","stare":"Existent","operator":"Transgaz","adancime":null,"detalii":"SPC - E.T. București","_s":{"f":"#ff9e17","fo":1.0,"s":"#232323","so":1.0,"w":0.0,"r":9.45,"ic":true,"icon":{"src":"data/symbols/transgaz_srm_scv_spc_pm_3.png","w":24,"h":24}},"_c":3}},{"type":"Feature","geometry":{"coordinates":[26.015271,44.979715,0.0],"type":"Point"},"properties":{"tip_retea":"Gaze","stare":"Existent","operator":"Transgaz","adancime":null,"detalii":"SPC - E.T. București","_s":{"f":"#ff9e17","fo":1.0,"s":"#232323","so":1.0,"w":0.0,"r":9.45,"ic":true,"icon":{"src":"data/symbols/transgaz_srm_scv_spc_pm_3.png","w":24,"h":24}},"_c":3}},{"type":"Feature","geometry":{"coordinates":[25.558552,45.324084,0.0],"type":"Point"},"properties":{"tip_retea":"Gaze","stare":"Existent","operator":"Transgaz","adancime":null,"detalii":"SPC - E.T. București","_s":{"f":"#ff9e17","fo":1.0,"s":"#232323","so":1.0,"w":0.0,"r":9.45,"ic":true,"icon":{"src":"data/symbols/transgaz_srm_scv_spc_pm_3.png","w":24,"h":24}},"_c":3}},{"type":"Feature","geometry":{"coordinates":[25.958388,44.921534,0.0],"type":"Point"},"properties":{"tip_retea":"Gaze","stare":"Existent","operator":"Transgaz","adancime":null,"detalii":"SPC - E.T. București","_s":{"f":"#ff9e17","fo":1.0,"s":"#232323","so":1.0,"w":0.0,"r":9.45,"ic":true,"icon":{"src":"data/symbols/transgaz_srm_scv_spc_pm_3.png","w":24,"h":24}},"_c":3}},{"type":"Feature","geometry":{"coordinates":[25.636241,45.228767,0.0],"type":"Point"},"properties":{"tip_retea":"Gaze","stare":"Existent","operator":"Transgaz","adancime":null,"detalii":"SPC - E.T. București","_s":{"f":"#ff9e17","fo":1.0,"s":"#232323","so":1.0,"w":0.0,"r":9.45,"ic":true,"icon":{"src":"data/symbols/transgaz_srm_scv_spc_pm_3.png","w":24,"h":24}},"_c":3}},{"type":"Feature","geometry":{"coordinates":[25.861717,44.831778,0.0],"type":"Point"},"properties":{"tip_retea":"Gaze","stare":"Existent","operator":"Transgaz","adancime":null,"detalii":"SPC - E.T. București","_s":{"f":"#ff9e17","fo":1.0,"s":"#232323","so":1.0,"w":0.0,"r":9.45,"ic":true,"icon":{"src":"data/symbols/transgaz_srm_scv_spc_pm_3.png","w":24,"h":24}},"_c":3}},{"type":"Feature","geometry":{"coordinates":[25.971621,44.959081,0.0],"type":"Point"},"properties":{"tip_retea":"Gaze","stare":"Existent","operator":"Transgaz","adancime":null,"detalii":"SPC - E.T. București","_s":{"f":"#ff9e17","fo":1.0,"s":"#232323","so":1.0,"w":0.0,"r":9.45,"ic":true,"icon":{"src":"data/symbols/transgaz_srm_scv_spc_pm_3.png","w":24,"h":24}},"_c":3}},{"type":"Feature","geometry":{"coordinates":[26.01649,45.018807,0.0],"type":"Point"},"properties":{"tip_retea":"Gaze","stare":"Existent","operator":"Transgaz","adancime":null,"detalii":"SPC - E.T. București","_s":{"f":"#ff9e17","fo":1.0,"s":"#232323","so":1.0,"w":0.0,"r":9.45,"ic":true,"icon":{"src":"data/symbols/transgaz_srm_scv_spc_pm_3.png","w":24,"h":24}},"_c":3}},{"type":"Feature","geometry":{"coordinates":[25.796309,45.038185,0.0],"type":"Point"},"properties":{"tip_retea":"Gaze","stare":"Existent","operator":"Transgaz","adancime":null,"detalii":"SPC - E.T. București","_s":{"f":"#ff9e17","fo":1.0,"s":"#232323","so":1.0,"w":0.0,"r":9.45,"ic":true,"icon":{"src":"data/symbols/transgaz_srm_scv_spc_pm_3.png","w":24,"h":24}},"_c":3}},{"type":"Feature","geometry":{"coordinates":[25.52029,45.448953,0.0],"type":"Point"},"properties":{"tip_retea":"Gaze","stare":"Existent","operator":"Transgaz","adancime":null,"detalii":"SPC - E.T. Brașov","_s":{"f":"#ff9e17","fo":1.0,"s":"#232323","so":1.0,"w":0.0,"r":9.45,"ic":true,"icon":{"src":"data/symbols/transgaz_srm_scv_spc_pm_2.png","w":24,"h":24}},"_c":2}},{"type":"Feature","geometry":{"coordinates":[25.520273,45.448957,0.0],"type":"Point"},"properties":{"tip_retea":"Gaze","stare":"Existent","operator":"Transgaz","adancime":null,"detalii":"SPC - E.T. Brașov","_s":{"f":"#ff9e17","fo":1.0,"s":"#232323","so":1.0,"w":0.0,"r":9.45,"ic":true,"icon":{"src":"data/symbols/transgaz_srm_scv_spc_pm_2.png","w":24,"h":24}},"_c":2}},{"type":"Feature","geometry":{"coordinates":[26.013381,44.884587,0.0],"type":"Point"},"properties":{"tip_retea":"Gaze","stare":"Existent","operator":"Transgaz","adancime":null,"detalii":"SRM - E.T. București","_s":{"f":"#a47158","fo":1.0,"s":"#232323","so":1.0,"w":0.0,"r":9.45,"ic":true,"icon":{"src":"data/symbols/transgaz_srm_scv_spc_pm_5.png","w":24,"h":24}},"_c":5}},{"type":"Feature","geometry":{"coordinates":[25.55146,45.33465,0.0],"type":"Point"},"properties":{"tip_retea":"Gaze","stare":"Existent","operator":"Transgaz","adancime":null,"detalii":"SRM - E.T. București","_s":{"f":"#a47158","fo":1.0,"s":"#232323","so":1.0,"w":0.0,"r":9.45,"ic":true,"icon":{"src":"data/symbols/transgaz_srm_scv_spc_pm_5.png","w":24,"h":24}},"_c":5}},{"type":"Feature","geometry":{"coordinates":[25.561314,45.319474,0.0],"type":"Point"},"properties":{"tip_retea":"Gaze","stare":"Existent","operator":"Transgaz","adancime":null,"detalii":"SRM - E.T. București","_s":{"f":"#a47158","fo":1.0,"s":"#232323","so":1.0,"w":0.0,"r":9.45,"ic":true,"icon":{"src":"data/symbols/transgaz_srm_scv_spc_pm_5.png","w":24,"h":24}},"_c":5}},{"type":"Feature","geometry":{"coordinates":[25.621746,45.279295,0.0],"type":"Point"},"properties":{"tip_retea":"Gaze","stare":"Existent","operator":"Transgaz","adancime":null,"detalii":"SRM - E.T. București","_s":{"f":"#a47158","fo":1.0,"s":"#232323","so":1.0,"w":0.0,"r":9.45,"ic":true,"icon":{"src":"data/symbols/transgaz_srm_scv_spc_pm_5.png","w":24,"h":24}},"_c":5}},{"type":"Feature","geometry":{"coordinates":[25.648372,45.19386,0.0],"type":"Point"},"properties":{"tip_retea":"Gaze","stare":"Existent","operator":"Transgaz","adancime":null,"detalii":"SRM - E.T. București","_s":{"f":"#a47158","fo":1.0,"s":"#232323","so":1.0,"w":0.0,"r":9.45,"ic":true,"icon":{"src":"data/symbols/transgaz_srm_scv_spc_pm_5.png","w":24,"h":24}},"_c":5}},{"type":"Feature","geometry":{"coordinates":[25.711741,45.135563,0.0],"type":"Point"},"properties":{"tip_retea":"Gaze","stare":"Existent","operator":"Transgaz","adancime":null,"detalii":"SRM - E.T. București","_s":{"f":"#a47158","fo":1.0,"s":"#232323","so":1.0,"w":0.0,"r":9.45,"ic":true,"icon":{"src":"data/symbols/transgaz_srm_scv_spc_pm_5.png","w":24,"h":24}},"_c":5}},{"type":"Feature","geometry":{"coordinates":[25.737385,45.116178,0.0],"type":"Point"},"properties":{"tip_retea":"Gaze","stare":"Existent","operator":"Transgaz","adancime":null,"detalii":"SRM - E.T. București","_s":{"f":"#a47158","fo":1.0,"s":"#232323","so":1.0,"w":0.0,"r":9.45,"ic":true,"icon":{"src":"data/symbols/transgaz_srm_scv_spc_pm_5.png","w":24,"h":24}},"_c":5}},{"type":"Feature","geometry":{"coordinates":[25.758143,45.094382,0.0],"type":"Point"},"properties":{"tip_retea":"Gaze","stare":"Existent","operator":"Transgaz","adancime":null,"detalii":"SRM - E.T. București","_s":{"f":"#a47158","fo":1.0,"s":"#232323","so":1.0,"w":0.0,"r":9.45,"ic":true,"icon":{"src":"data/symbols/transgaz_srm_scv_spc_pm_5.png","w":24,"h":24}},"_c":5}},{"type":"Feature","geometry":{"coordinates":[25.797356,45.022013,0.0],"type":"Point"},"properties":{"tip_retea":"Gaze","stare":"Existent","operator":"Transgaz","adancime":null,"detalii":"SRM - E.T. București","_s":{"f":"#a47158","fo":1.0,"s":"#232323","so":1.0,"w":0.0,"r":9.45,"ic":true,"icon":{"src":"data/symbols/transgaz_srm_scv_spc_pm_5.png","w":24,"h":24}},"_c":5}},{"type":"Feature","geometry":{"coordinates":[25.827511,44.954538,0.0],"type":"Point"},"properties":{"tip_retea":"Gaze","stare":"Existent","operator":"Transgaz","adancime":null,"detalii":"SRM - E.T. București","_s":{"f":"#a47158","fo":1.0,"s":"#232323","so":1.0,"w":0.0,"r":9.45,"ic":true,"icon":{"src":"data/symbols/transgaz_srm_scv_spc_pm_5.png","w":24,"h":24}},"_c":5}},{"type":"Feature","geometry":{"coordinates":[25.971729,44.958922,0.0],"type":"Point"},"properties":{"tip_retea":"Gaze","stare":"Existent","operator":"Transgaz","adancime":null,"detalii":"SRM - E.T. București","_s":{"f":"#a47158","fo":1.0,"s":"#232323","so":1.0,"w":0.0,"r":9.45,"ic":true,"icon":{"src":"data/symbols/transgaz_srm_scv_spc_pm_5.png","w":24,"h":24}},"_c":5}},{"type":"Feature","geometry":{"coordinates":[25.997033,44.98068,0.0],"type":"Point"},"properties":{"tip_retea":"Gaze","stare":"Existent","operator":"Transgaz","adancime":null,"detalii":"SRM - E.T. București","_s":{"f":"#a47158","fo":1.0,"s":"#232323","so":1.0,"w":0.0,"r":9.45,"ic":true,"icon":{"src":"data/symbols/transgaz_srm_scv_spc_pm_5.png","w":24,"h":24}},"_c":5}},{"type":"Feature","geometry":{"coordinates":[26.016285,45.018864,0.0],"type":"Point"},"properties":{"tip_retea":"Gaze","stare":"Existent","operator":"Transgaz","adancime":null,"detalii":"SRM - E.T. București","_s":{"f":"#a47158","fo":1.0,"s":"#232323","so":1.0,"w":0.0,"r":9.45,"ic":true,"icon":{"src":"data/symbols/transgaz_srm_scv_spc_pm_5.png","w":24,"h":24}},"_c":5}},{"type":"Feature","geometry":{"coordinates":[26.03098,44.963208,0.0],"type":"Point"},"properties":{"tip_retea":"Gaze","stare":"Existent","operator":"Transgaz","adancime":null,"detalii":"SRM - E.T. București","_s":{"f":"#a47158","fo":1.0,"s":"#232323","so":1.0,"w":0.0,"r":9.45,"ic":true,"icon":{"src":"data/symbols/transgaz_srm_scv_spc_pm_5.png","w":24,"h":24}},"_c":5}},{"type":"Feature","geometry":{"coordinates":[26.161127,44.952529,0.0],"type":"Point"},"properties":{"tip_retea":"Gaze","stare":"Existent","operator":"Transgaz","adancime":null,"detalii":"SRM - E.T. București","_s":{"f":"#a47158","fo":1.0,"s":"#232323","so":1.0,"w":0.0,"r":9.45,"ic":true,"icon":{"src":"data/symbols/transgaz_srm_scv_spc_pm_5.png","w":24,"h":24}},"_c":5}},{"type":"Feature","geometry":{"coordinates":[25.996904,44.921351,0.0],"type":"Point"},"properties":{"tip_retea":"Gaze","stare":"Existent","operator":"Transgaz","adancime":null,"detalii":"SRM - E.T. București","_s":{"f":"#a47158","fo":1.0,"s":"#232323","so":1.0,"w":0.0,"r":9.45,"ic":true,"icon":{"src":"data/symbols/transgaz_srm_scv_spc_pm_5.png","w":24,"h":24}},"_c":5}},{"type":"Feature","geometry":{"coordinates":[25.921658,44.925014,0.0],"type":"Point"},"properties":{"tip_retea":"Gaze","stare":"Existent","operator":"Transgaz","adancime":null,"detalii":"SRM - E.T. București","_s":{"f":"#a47158","fo":1.0,"s":"#232323","so":1.0,"w":0.0,"r":9.45,"ic":true,"icon":{"src":"data/symbols/transgaz_srm_scv_spc_pm_5.png","w":24,"h":24}},"_c":5}},{"type":"Feature","geometry":{"coordinates":[25.857678,44.927998,0.0],"type":"Point"},"properties":{"tip_retea":"Gaze","stare":"Existent","operator":"Transgaz","adancime":null,"detalii":"SRM - E.T. București","_s":{"f":"#a47158","fo":1.0,"s":"#232323","so":1.0,"w":0.0,"r":9.45,"ic":true,"icon":{"src":"data/symbols/transgaz_srm_scv_spc_pm_5.png","w":24,"h":24}},"_c":5}},{"type":"Feature","geometry":{"coordinates":[25.996589,44.882513,0.0],"type":"Point"},"properties":{"tip_retea":"Gaze","stare":"Existent","operator":"Transgaz","adancime":null,"detalii":"SRM - E.T. București","_s":{"f":"#a47158","fo":1.0,"s":"#232323","so":1.0,"w":0.0,"r":9.45,"ic":true,"icon":{"src":"data/symbols/transgaz_srm_scv_spc_pm_5.png","w":24,"h":24}},"_c":5}},{"type":"Feature","geometry":{"coordinates":[25.852675,44.852644,0.0],"type":"Point"},"properties":{"tip_retea":"Gaze","stare":"Existent","operator":"Transgaz","adancime":null,"detalii":"SRM - E.T. București","_s":{"f":"#a47158","fo":1.0,"s":"#232323","so":1.0,"w":0.0,"r":9.45,"ic":true,"icon":{"src":"data/symbols/transgaz_srm_scv_spc_pm_5.png","w":24,"h":24}},"_c":5}},{"type":"Feature","geometry":{"coordinates":[26.113454,44.929481,0.0],"type":"Point"},"properties":{"tip_retea":"Gaze","stare":"Existent","operator":"Transgaz","adancime":null,"detalii":"SRM - E.T. București","_s":{"f":"#a47158","fo":1.0,"s":"#232323","so":1.0,"w":0.0,"r":9.45,"ic":true,"icon":{"src":"data/symbols/transgaz_srm_scv_spc_pm_5.png","w":24,"h":24}},"_c":5}},{"type":"Feature","geometry":{"coordinates":[25.920121,44.964518,0.0],"type":"Point"},"properties":{"tip_retea":"Gaze","stare":"Existent","operator":"Transgaz","adancime":null,"detalii":"SRM - E.T. București","_s":{"f":"#a47158","fo":1.0,"s":"#232323","so":1.0,"w":0.0,"r":9.45,"ic":true,"icon":{"src":"data/symbols/transgaz_srm_scv_spc_pm_5.png","w":24,"h":24}},"_c":5}},{"type":"Feature","geometry":{"coordinates":[25.902264,44.966113,0.0],"type":"Point"},"properties":{"tip_retea":"Gaze","stare":"Existent","operator":"Transgaz","adancime":null,"detalii":"SRM - E.T. București","_s":{"f":"#a47158","fo":1.0,"s":"#232323","so":1.0,"w":0.0,"r":9.45,"ic":true,"icon":{"src":"data/symbols/transgaz_srm_scv_spc_pm_5.png","w":24,"h":24}},"_c":5}},{"type":"Feature","geometry":{"coordinates":[25.695774,45.161746,0.0],"type":"Point"},"properties":{"tip_retea":"Gaze","stare":"Existent","operator":"Transgaz","adancime":null,"detalii":"SRM - E.T. București","_s":{"f":"#a47158","fo":1.0,"s":"#232323","so":1.0,"w":0.0,"r":9.45,"ic":true,"icon":{"src":"data/symbols/transgaz_srm_scv_spc_pm_5.png","w":24,"h":24}},"_c":5}},{"type":"Feature","geometry":{"coordinates":[25.63419,45.136841,0.0],"type":"Point"},"properties":{"tip_retea":"Gaze","stare":"Existent","operator":"Transgaz","adancime":null,"detalii":"SRM - E.T. București","_s":{"f":"#a47158","fo":1.0,"s":"#232323","so":1.0,"w":0.0,"r":9.45,"ic":true,"icon":{"src":"data/symbols/transgaz_srm_scv_spc_pm_5.png","w":24,"h":24}},"_c":5}},{"type":"Feature","geometry":{"coordinates":[25.661617,45.119324,0.0],"type":"Point"},"properties":{"tip_retea":"Gaze","stare":"Existent","operator":"Transgaz","adancime":null,"detalii":"SRM - E.T. București","_s":{"f":"#a47158","fo":1.0,"s":"#232323","so":1.0,"w":0.0,"r":9.45,"ic":true,"icon":{"src":"data/symbols/transgaz_srm_scv_spc_pm_5.png","w":24,"h":24}},"_c":5}},{"type":"Feature","geometry":{"coordinates":[25.743343,44.971431,0.0],"type":"Point"},"properties":{"tip_retea":"Gaze","stare":"Existent","operator":"Transgaz","adancime":null,"detalii":"SRM - E.T. București","_s":{"f":"#a47158","fo":1.0,"s":"#232323","so":1.0,"w":0.0,"r":9.45,"ic":true,"icon":{"src":"data/symbols/transgaz_srm_scv_spc_pm_5.png","w":24,"h":24}},"_c":5}},{"type":"Feature","geometry":{"coordinates":[25.969691,44.921348,0.0],"type":"Point"},"properties":{"tip_retea":"Gaze","stare":"Existent","operator":"Transgaz","adancime":null,"detalii":"SRM - E.T. București","_s":{"f":"#a47158","fo":1.0,"s":"#232323","so":1.0,"w":0.0,"r":9.45,"ic":true,"icon":{"src":"data/symbols/transgaz_srm_scv_spc_pm_5.png","w":24,"h":24}},"_c":5}},{"type":"Feature","geometry":{"coordinates":[25.996549,44.882389,0.0],"type":"Point"},"properties":{"tip_retea":"Gaze","stare":"Existent","operator":"Transgaz","adancime":null,"detalii":"SRM - E.T. București","_s":{"f":"#a47158","fo":1.0,"s":"#232323","so":1.0,"w":0.0,"r":9.45,"ic":true,"icon":{"src":"data/symbols/transgaz_srm_scv_spc_pm_5.png","w":24,"h":24}},"_c":5}},{"type":"Feature","geometry":{"coordinates":[25.745021,45.048127,0.0],"type":"Point"},"properties":{"tip_retea":"Gaze","stare":"Existent","operator":"Transgaz","adancime":null,"detalii":"SRM - E.T. București","_s":{"f":"#a47158","fo":1.0,"s":"#232323","so":1.0,"w":0.0,"r":9.45,"ic":true,"icon":{"src":"data/symbols/transgaz_srm_scv_spc_pm_5.png","w":24,"h":24}},"_c":5}},{"type":"Feature","geometry":{"coordinates":[25.921459,44.96665,0.0],"type":"Point"},"properties":{"tip_retea":"Gaze","stare":"Existent","operator":"Transgaz","adancime":null,"detalii":"SRM - E.T. București","_s":{"f":"#a47158","fo":1.0,"s":"#232323","so":1.0,"w":0.0,"r":9.45,"ic":true,"icon":{"src":"data/symbols/transgaz_srm_scv_spc_pm_5.png","w":24,"h":24}},"_c":5}},{"type":"Feature","geometry":{"coordinates":[25.85269,44.852685,0.0],"type":"Point"},"properties":{"tip_retea":"Gaze","stare":"Existent","operator":"Transgaz","adancime":null,"detalii":"SRM - E.T. București","_s":{"f":"#a47158","fo":1.0,"s":"#232323","so":1.0,"w":0.0,"r":9.45,"ic":true,"icon":{"src":"data/symbols/transgaz_srm_scv_spc_pm_5.png","w":24,"h":24}},"_c":5}},{"type":"Feature","geometry":{"coordinates":[25.90442,44.859423,0.0],"type":"Point"},"properties":{"tip_retea":"Gaze","stare":"Existent","operator":"Transgaz","adancime":null,"detalii":"SRM - E.T. București","_s":{"f":"#a47158","fo":1.0,"s":"#232323","so":1.0,"w":0.0,"r":9.45,"ic":true,"icon":{"src":"data/symbols/transgaz_srm_scv_spc_pm_5.png","w":24,"h":24}},"_c":5}},{"type":"Feature","geometry":{"coordinates":[25.524796,45.306254,0.0],"type":"Point"},"properties":{"tip_retea":"Gaze","stare":"Existent","operator":"Transgaz","adancime":null,"detalii":"SRM - E.T. București","_s":{"f":"#a47158","fo":1.0,"s":"#232323","so":1.0,"w":0.0,"r":9.45,"ic":true,"icon":{"src":"data/symbols/transgaz_srm_scv_spc_pm_5.png","w":24,"h":24}},"_c":5}},{"type":"Feature","geometry":{"coordinates":[25.632598,45.237625,0.0],"type":"Point"},"properties":{"tip_retea":"Gaze","stare":"Existent","operator":"Transgaz","adancime":null,"detalii":"SRM - E.T. București","_s":{"f":"#a47158","fo":1.0,"s":"#232323","so":1.0,"w":0.0,"r":9.45,"ic":true,"icon":{"src":"data/symbols/transgaz_srm_scv_spc_pm_5.png","w":24,"h":24}},"_c":5}},{"type":"Feature","geometry":{"coordinates":[25.66152,45.205052,0.0],"type":"Point"},"properties":{"tip_retea":"Gaze","stare":"Existent","operator":"Transgaz","adancime":null,"detalii":"SRM - E.T. București","_s":{"f":"#a47158","fo":1.0,"s":"#232323","so":1.0,"w":0.0,"r":9.45,"ic":true,"icon":{"src":"data/symbols/transgaz_srm_scv_spc_pm_5.png","w":24,"h":24}},"_c":5}},{"type":"Feature","geometry":{"coordinates":[25.751877,45.105353,0.0],"type":"Point"},"properties":{"tip_retea":"Gaze","stare":"Existent","operator":"Transgaz","adancime":null,"detalii":"SRM - E.T. București","_s":{"f":"#a47158","fo":1.0,"s":"#232323","so":1.0,"w":0.0,"r":9.45,"ic":true,"icon":{"src":"data/symbols/transgaz_srm_scv_spc_pm_5.png","w":24,"h":24}},"_c":5}},{"type":"Feature","geometry":{"coordinates":[25.796343,45.038287,0.0],"type":"Point"},"properties":{"tip_retea":"Gaze","stare":"Existent","operator":"Transgaz","adancime":null,"detalii":"SRM - E.T. București","_s":{"f":"#a47158","fo":1.0,"s":"#232323","so":1.0,"w":0.0,"r":9.45,"ic":true,"icon":{"src":"data/symbols/transgaz_srm_scv_spc_pm_5.png","w":24,"h":24}},"_c":5}},{"type":"Feature","geometry":{"coordinates":[25.797697,44.957187,0.0],"type":"Point"},"properties":{"tip_retea":"Gaze","stare":"Existent","operator":"Transgaz","adancime":null,"detalii":"SRM - E.T. București","_s":{"f":"#a47158","fo":1.0,"s":"#232323","so":1.0,"w":0.0,"r":9.45,"ic":true,"icon":{"src":"data/symbols/transgaz_srm_scv_spc_pm_5.png","w":24,"h":24}},"_c":5}},{"type":"Feature","geometry":{"coordinates":[26.061662,44.954027,0.0],"type":"Point"},"properties":{"tip_retea":"Gaze","stare":"Existent","operator":"Transgaz","adancime":null,"detalii":"SRM - E.T. București","_s":{"f":"#a47158","fo":1.0,"s":"#232323","so":1.0,"w":0.0,"r":9.45,"ic":true,"icon":{"src":"data/symbols/transgaz_srm_scv_spc_pm_5.png","w":24,"h":24}},"_c":5}},{"type":"Feature","geometry":{"coordinates":[26.07535,44.951586,0.0],"type":"Point"},"properties":{"tip_retea":"Gaze","stare":"Existent","operator":"Transgaz","adancime":null,"detalii":"SRM - E.T. București","_s":{"f":"#a47158","fo":1.0,"s":"#232323","so":1.0,"w":0.0,"r":9.45,"ic":true,"icon":{"src":"data/symbols/transgaz_srm_scv_spc_pm_5.png","w":24,"h":24}},"_c":5}},{"type":"Feature","geometry":{"coordinates":[25.737501,45.116254,0.0],"type":"Point"},"properties":{"tip_retea":"Gaze","stare":"Existent","operator":"Transgaz","adancime":null,"detalii":"SRM - E.T. București","_s":{"f":"#a47158","fo":1.0,"s":"#232323","so":1.0,"w":0.0,"r":9.45,"ic":true,"icon":{"src":"data/symbols/transgaz_srm_scv_spc_pm_5.png","w":24,"h":24}},"_c":5}},{"type":"Feature","geometry":{"coordinates":[26.048044,44.988335,0.0],"type":"Point"},"properties":{"tip_retea":"Gaze","stare":"Existent","operator":"Transgaz","adancime":null,"detalii":"SRM - E.T. București","_s":{"f":"#a47158","fo":1.0,"s":"#232323","so":1.0,"w":0.0,"r":9.45,"ic":true,"icon":{"src":"data/symbols/transgaz_srm_scv_spc_pm_5.png","w":24,"h":24}},"_c":5}},{"type":"Feature","geometry":{"coordinates":[25.838964,44.865073,0.0],"type":"Point"},"properties":{"tip_retea":"Gaze","stare":"Existent","operator":"Transgaz","adancime":null,"detalii":"SRM - E.T. București","_s":{"f":"#a47158","fo":1.0,"s":"#232323","so":1.0,"w":0.0,"r":9.45,"ic":true,"icon":{"src":"data/symbols/transgaz_srm_scv_spc_pm_5.png","w":24,"h":24}},"_c":5}},{"type":"Feature","geometry":{"coordinates":[25.95995,44.938079,0.0],"type":"Point"},"properties":{"tip_retea":"Gaze","stare":"Existent","operator":"Transgaz","adancime":null,"detalii":"SRM - E.T. București","_s":{"f":"#a47158","fo":1.0,"s":"#232323","so":1.0,"w":0.0,"r":9.45,"ic":true,"icon":{"src":"data/symbols/transgaz_srm_scv_spc_pm_5.png","w":24,"h":24}},"_c":5}},{"type":"Feature","geometry":{"coordinates":[25.899676,44.965089,0.0],"type":"Point"},"properties":{"tip_retea":"Gaze","stare":"Existent","operator":"Transgaz","adancime":null,"detalii":"SRM - E.T. București","_s":{"f":"#a47158","fo":1.0,"s":"#232323","so":1.0,"w":0.0,"r":9.45,"ic":true,"icon":{"src":"data/symbols/transgaz_srm_scv_spc_pm_5.png","w":24,"h":24}},"_c":5}},{"type":"Feature","geometry":{"coordinates":[25.998048,44.879508,0.0],"type":"Point"},"properties":{"tip_retea":"Gaze","stare":"Existent","operator":"Transgaz","adancime":null,"detalii":"SRM - E.T. București","_s":{"f":"#a47158","fo":1.0,"s":"#232323","so":1.0,"w":0.0,"r":9.45,"ic":true,"icon":{"src":"data/symbols/transgaz_srm_scv_spc_pm_5.png","w":24,"h":24}},"_c":5}},{"type":"Feature","geometry":{"coordinates":[26.161031,44.952411,0.0],"type":"Point"},"properties":{"tip_retea":"Gaze","stare":"Existent","operator":"Transgaz","adancime":null,"detalii":"SRM - E.T. București","_s":{"f":"#a47158","fo":1.0,"s":"#232323","so":1.0,"w":0.0,"r":9.45,"ic":true,"icon":{"src":"data/symbols/transgaz_srm_scv_spc_pm_5.png","w":24,"h":24}},"_c":5}},{"type":"Feature","geometry":{"coordinates":[25.9111,44.816854,0.0],"type":"Point"},"properties":{"tip_retea":"Gaze","stare":"Existent","operator":"Transgaz","adancime":null,"detalii":"SRM - E.T. București","_s":{"f":"#a47158","fo":1.0,"s":"#232323","so":1.0,"w":0.0,"r":9.45,"ic":true,"icon":{"src":"data/symbols/transgaz_srm_scv_spc_pm_5.png","w":24,"h":24}},"_c":5}},{"type":"Feature","geometry":{"coordinates":[25.555948,45.445922,0.0],"type":"Point"},"properties":{"tip_retea":"Gaze","stare":"Existent","operator":"Transgaz","adancime":null,"detalii":"SRM - E.T. Brașov","_s":{"f":"#a47158","fo":1.0,"s":"#232323","so":1.0,"w":0.0,"r":9.45,"ic":true,"icon":{"src":"data/symbols/transgaz_srm_scv_spc_pm_4.png","w":24,"h":24}},"_c":4}},{"type":"Feature","geometry":{"coordinates":[25.524265,45.409197,0.0],"type":"Point"},"properties":{"tip_retea":"Gaze","stare":"Existent","operator":"Transgaz","adancime":null,"detalii":"SRM - E.T. Brașov","_s":{"f":"#a47158","fo":1.0,"s":"#232323","so":1.0,"w":0.0,"r":9.45,"ic":true,"icon":{"src":"data/symbols/transgaz_srm_scv_spc_pm_4.png","w":24,"h":24}},"_c":4}},{"type":"Feature","geometry":{"coordinates":[25.519963,45.449273,0.0],"type":"Point"},"properties":{"tip_retea":"Gaze","stare":"Existent","operator":"Transgaz","adancime":null,"detalii":"SRM - E.T. Brașov","_s":{"f":"#a47158","fo":1.0,"s":"#232323","so":1.0,"w":0.0,"r":9.45,"ic":true,"icon":{"src":"data/symbols/transgaz_srm_scv_spc_pm_4.png","w":24,"h":24}},"_c":4}}]}