{"type":"FeatureCollection","features":[{"type":"Feature","geometry":{"coordinates":[[[[26.160969,44.952632,0.0],[26.161109,44.952638,0.0],[26.161525,44.952656,0.0],[26.161532,44.952395,0.0],[26.160965,44.952385,0.0],[26.160969,44.952632,0.0]]]],"type":"MultiPolygon"},"properties":{"stare":"Existent","operator":"Transgaz","detalii":"Împrejmuiri - E.T. București","_s":{"f":"#4daf4a","fo":0.0,"s":"#4daf4a","so":1.0,"w":3.63,"r":5.0},"_c":1}},{"type":"Feature","geometry":{"coordinates":[[[[25.797367,44.957226,0.0],[25.797858,44.957311,0.0],[25.797981,44.957086,0.0],[25.797461,44.956994,0.0],[25.797367,44.957226,0.0]]]],"type":"MultiPolygon"},"properties":{"stare":"Existent","operator":"Transgaz","detalii":"Împrejmuiri - E.T. București","_s":{"f":"#4daf4a","fo":0.0,"s":"#4daf4a","so":1.0,"w":3.63,"r":5.0},"_c":1}},{"type":"Feature","geometry":{"coordinates":[[[[25.820243,44.976914,0.0],[25.820556,44.976946,0.0],[25.820617,44.97668,0.0],[25.820306,44.976648,0.0],[25.820243,44.976914,0.0]]]],"type":"MultiPolygon"},"properties":{"stare":"Existent","operator":"Transgaz","detalii":"Împrejmuiri - E.T. București","_s":{"f":"#4daf4a","fo":0.0,"s":"#4daf4a","so":1.0,"w":3.63,"r":5.0},"_c":1}},{"type":"Feature","geometry":{"coordinates":[[[[25.995573,44.882576,0.0],[25.996027,44.882588,0.0],[25.996042,44.882648,0.0],[25.99635,44.882607,0.0],[25.996219,44.882454,0.0],[25.995569,44.882511,0.0],[25.995573,44.882576,0.0]]]],"type":"MultiPolygon"},"properties":{"stare":"Existent","operator":"Transgaz","detalii":"Împrejmuiri - E.T. București","_s":{"f":"#4daf4a","fo":0.0,"s":"#4daf4a","so":1.0,"w":3.63,"r":5.0},"_c":1}},{"type":"Feature","geometry":{"coordinates":[[[[25.737165,45.115967,0.0],[25.737112,45.11602,0.0],[25.737105,45.116027,0.0],[25.736935,45.116188,0.0],[25.737037,45.116221,0.0],[25.737055,45.116227,0.0],[25.737083,45.116235,0.0],[25.737106,45.116242,0.0],[25.737668,45.116411,0.0],[25.737818,45.116174,0.0],[25.737346,45.11604,0.0],[25.737385,45.115992,0.0],[25.737241,45.115944,0.0],[25.737217,45.115981,0.0],[25.737165,45.115967,0.0]]]],"type":"MultiPolygon"},"properties":{"stare":"Existent","operator":"Transgaz","detalii":"Împrejmuiri - E.T. București","_s":{"f":"#4daf4a","fo":0.0,"s":"#4daf4a","so":1.0,"w":3.63,"r":5.0},"_c":1}},{"type":"Feature","geometry":{"coordinates":[[[[25.852365,44.852682,0.0],[25.852732,44.852789,0.0],[25.85296,44.852282,0.0],[25.852609,44.852184,0.0],[25.852365,44.852682,0.0]]]],"type":"MultiPolygon"},"properties":{"stare":"Existent","operator":"Transgaz","detalii":"Împrejmuiri - E.T. București","_s":{"f":"#4daf4a","fo":0.0,"s":"#4daf4a","so":1.0,"w":3.63,"r":5.0},"_c":1}},{"type":"Feature","geometry":{"coordinates":[[[[25.95971,44.938211,0.0],[25.959884,44.938266,0.0],[25.960075,44.937956,0.0],[25.959901,44.937904,0.0],[25.95971,44.938211,0.0]]]],"type":"MultiPolygon"},"properties":{"stare":"Existent","operator":"Transgaz","detalii":"Împrejmuiri - E.T. București","_s":{"f":"#4daf4a","fo":0.0,"s":"#4daf4a","so":1.0,"w":3.63,"r":5.0},"_c":1}},{"type":"Feature","geometry":{"coordinates":[[[[25.632431,45.237821,0.0],[25.632484,45.237831,0.0],[25.632535,45.237675,0.0],[25.632672,45.237694,0.0],[25.632761,45.237412,0.0],[25.632575,45.23738,0.0],[25.632431,45.237821,0.0]]]],"type":"MultiPolygon"},"properties":{"stare":"Existent","operator":"Transgaz","detalii":"Împrejmuiri - E.T. București","_s":{"f":"#4daf4a","fo":0.0,"s":"#4daf4a","so":1.0,"w":3.63,"r":5.0},"_c":1}},{"type":"Feature","geometry":{"coordinates":[[[[26.0143,44.885336,0.0],[26.014368,44.885312,0.0],[26.014346,44.885277,0.0],[26.014276,44.885302,0.0],[26.0143,44.885336,0.0]]]],"type":"MultiPolygon"},"properties":{"stare":"Existent","operator":"Transgaz","detalii":"Împrejmuiri - E.T. București","_s":{"f":"#4daf4a","fo":0.0,"s":"#4daf4a","so":1.0,"w":3.63,"r":5.0},"_c":1}},{"type":"Feature","geometry":{"coordinates":[[[[25.996986,44.980559,0.0],[25.996758,44.980801,0.0],[25.997081,44.980947,0.0],[25.997303,44.980706,0.0],[25.997047,44.980586,0.0],[25.997036,44.980581,0.0],[25.996986,44.980559,0.0]]]],"type":"MultiPolygon"},"properties":{"stare":"Existent","operator":"Transgaz","detalii":"Împrejmuiri - E.T. București","_s":{"f":"#4daf4a","fo":0.0,"s":"#4daf4a","so":1.0,"w":3.63,"r":5.0},"_c":1}},{"type":"Feature","geometry":{"coordinates":[[[[25.971619,44.95912,0.0],[25.972065,44.959043,0.0],[25.971997,44.958704,0.0],[25.971544,44.958745,0.0],[25.971619,44.95912,0.0]]]],"type":"MultiPolygon"},"properties":{"stare":"Existent","operator":"Transgaz","detalii":"Împrejmuiri - E.T. București","_s":{"f":"#4daf4a","fo":0.0,"s":"#4daf4a","so":1.0,"w":3.63,"r":5.0},"_c":1}},{"type":"Feature","geometry":{"coordinates":[[[[25.996706,44.882817,0.0],[25.997039,44.882674,0.0],[25.996747,44.88233,0.0],[25.996574,44.882237,0.0],[25.996289,44.882335,0.0],[25.996706,44.882817,0.0]]]],"type":"MultiPolygon"},"properties":{"stare":"Existent","operator":"Transgaz","detalii":"Împrejmuiri - E.T. București","_s":{"f":"#4daf4a","fo":0.0,"s":"#4daf4a","so":1.0,"w":3.63,"r":5.0},"_c":1}},{"type":"Feature","geometry":{"coordinates":[[[[25.920148,44.964543,0.0],[25.920147,44.964513,0.0],[25.920091,44.964515,0.0],[25.920091,44.964544,0.0],[25.920148,44.964543,0.0]]]],"type":"MultiPolygon"},"properties":{"stare":"Existent","operator":"Transgaz","detalii":"Împrejmuiri - E.T. București","_s":{"f":"#4daf4a","fo":0.0,"s":"#4daf4a","so":1.0,"w":3.63,"r":5.0},"_c":1}},{"type":"Feature","geometry":{"coordinates":[[[[26.074888,44.951664,0.0],[26.075462,44.951679,0.0],[26.075472,44.951521,0.0],[26.074899,44.951506,0.0],[26.074888,44.951664,0.0]]]],"type":"MultiPolygon"},"properties":{"stare":"Existent","operator":"Transgaz","detalii":"Împrejmuiri - E.T. București","_s":{"f":"#4daf4a","fo":0.0,"s":"#4daf4a","so":1.0,"w":3.63,"r":5.0},"_c":1}},{"type":"Feature","geometry":{"coordinates":[[[[25.661458,45.119358,0.0],[25.661798,45.119357,0.0],[25.661792,45.119248,0.0],[25.66153,45.119249,0.0],[25.661455,45.119295,0.0],[25.661458,45.119358,0.0]]]],"type":"MultiPolygon"},"properties":{"stare":"Existent","operator":"Transgaz","detalii":"Împrejmuiri - E.T. București","_s":{"f":"#4daf4a","fo":0.0,"s":"#4daf4a","so":1.0,"w":3.63,"r":5.0},"_c":1}},{"type":"Feature","geometry":{"coordinates":[[[[25.661525,45.205064,0.0],[25.66154,45.205062,0.0],[25.661533,45.205038,0.0],[25.661512,45.205041,0.0],[25.661525,45.205064,0.0]]]],"type":"MultiPolygon"},"properties":{"stare":"Existent","operator":"Transgaz","detalii":"Împrejmuiri - E.T. București","_s":{"f":"#4daf4a","fo":0.0,"s":"#4daf4a","so":1.0,"w":3.63,"r":5.0},"_c":1}},{"type":"Feature","geometry":{"coordinates":[[[[25.838777,44.86499,0.0],[25.838905,44.865,0.0],[25.838882,44.865141,0.0],[25.838981,44.865151,0.0],[25.839011,44.864986,0.0],[25.838783,44.864966,0.0],[25.838777,44.86499,0.0]]]],"type":"MultiPolygon"},"properties":{"stare":"Existent","operator":"Transgaz","detalii":"Împrejmuiri - E.T. București","_s":{"f":"#4daf4a","fo":0.0,"s":"#4daf4a","so":1.0,"w":3.63,"r":5.0},"_c":1}},{"type":"Feature","geometry":{"coordinates":[[[[25.561208,45.319543,0.0],[25.561429,45.319463,0.0],[25.56138,45.319396,0.0],[25.561247,45.31944,0.0],[25.561289,45.319496,0.0],[25.561197,45.319529,0.0],[25.561208,45.319543,0.0]]]],"type":"MultiPolygon"},"properties":{"stare":"Existent","operator":"Transgaz","detalii":"Împrejmuiri - E.T. București","_s":{"f":"#4daf4a","fo":0.0,"s":"#4daf4a","so":1.0,"w":3.63,"r":5.0},"_c":1}},{"type":"Feature","geometry":{"coordinates":[[[[25.902253,44.966135,0.0],[25.902291,44.966124,0.0],[25.902279,44.966101,0.0],[25.902242,44.96611,0.0],[25.902253,44.966135,0.0]]]],"type":"MultiPolygon"},"properties":{"stare":"Existent","operator":"Transgaz","detalii":"Împrejmuiri - E.T. București","_s":{"f":"#4daf4a","fo":0.0,"s":"#4daf4a","so":1.0,"w":3.63,"r":5.0},"_c":1}},{"type":"Feature","geometry":{"coordinates":[[[[25.921151,44.966669,0.0],[25.921369,44.966735,0.0],[25.921561,44.966726,0.0],[25.921586,44.966683,0.0],[25.921629,44.966696,0.0],[25.921672,44.966614,0.0],[25.921255,44.966494,0.0],[25.921151,44.966669,0.0]]]],"type":"MultiPolygon"},"properties":{"stare":"Existent","operator":"Transgaz","detalii":"Împrejmuiri - E.T. București","_s":{"f":"#4daf4a","fo":0.0,"s":"#4daf4a","so":1.0,"w":3.63,"r":5.0},"_c":1}},{"type":"Feature","geometry":{"coordinates":[[[[25.996994,44.921088,0.0],[25.996616,44.921285,0.0],[25.996712,44.921364,0.0],[25.996621,44.921417,0.0],[25.996835,44.921604,0.0],[25.997285,44.921348,0.0],[25.996994,44.921088,0.0]]]],"type":"MultiPolygon"},"properties":{"stare":"Existent","operator":"Transgaz","detalii":"Împrejmuiri - E.T. București","_s":{"f":"#4daf4a","fo":0.0,"s":"#4daf4a","so":1.0,"w":3.63,"r":5.0},"_c":1}},{"type":"Feature","geometry":{"coordinates":[[[[26.013463,44.884752,0.0],[26.013818,44.884493,0.0],[26.013456,44.884241,0.0],[26.013103,44.884497,0.0],[26.013463,44.884752,0.0]]]],"type":"MultiPolygon"},"properties":{"stare":"Existent","operator":"Transgaz","detalii":"Împrejmuiri - E.T. București","_s":{"f":"#4daf4a","fo":0.0,"s":"#4daf4a","so":1.0,"w":3.63,"r":5.0},"_c":1}},{"type":"Feature","geometry":{"coordinates":[[[[26.113529,44.929581,0.0],[26.11374,44.929435,0.0],[26.113536,44.929289,0.0],[26.113325,44.929435,0.0],[26.113529,44.929581,0.0]]]],"type":"MultiPolygon"},"properties":{"stare":"Existent","operator":"Transgaz","detalii":"Împrejmuiri - E.T. București","_s":{"f":"#4daf4a","fo":0.0,"s":"#4daf4a","so":1.0,"w":3.63,"r":5.0},"_c":1}},{"type":"Feature","geometry":{"coordinates":[[[[25.781295,45.024548,0.0],[25.781346,45.02456,0.0],[25.781374,45.024486,0.0],[25.781323,45.024475,0.0],[25.781295,45.024548,0.0]]]],"type":"MultiPolygon"},"properties":{"stare":"Existent","operator":"Transgaz","detalii":"Împrejmuiri - E.T. București","_s":{"f":"#4daf4a","fo":0.0,"s":"#4daf4a","so":1.0,"w":3.63,"r":5.0},"_c":1}},{"type":"Feature","geometry":{"coordinates":[[[[25.8389,44.864262,0.0],[25.838952,44.86427,0.0],[25.838977,44.864135,0.0],[25.83892,44.864127,0.0],[25.8389,44.864262,0.0]]]],"type":"MultiPolygon"},"properties":{"stare":"Existent","operator":"Transgaz","detalii":"Împrejmuiri - E.T. București","_s":{"f":"#4daf4a","fo":0.0,"s":"#4daf4a","so":1.0,"w":3.63,"r":5.0},"_c":1}},{"type":"Feature","geometry":{"coordinates":[[[[25.778856,44.978933,0.0],[25.779224,44.978992,0.0],[25.779281,44.978831,0.0],[25.779331,44.97884,0.0],[25.779363,44.97875,0.0],[25.778931,44.978678,0.0],[25.778856,44.978933,0.0]]]],"type":"MultiPolygon"},"properties":{"stare":"Existent","operator":"Transgaz","detalii":"Împrejmuiri - E.T. București","_s":{"f":"#4daf4a","fo":0.0,"s":"#4daf4a","so":1.0,"w":3.63,"r":5.0},"_c":1}},{"type":"Feature","geometry":{"coordinates":[[[[25.904284,44.859452,0.0],[25.904414,44.859515,0.0],[25.904554,44.859391,0.0],[25.904436,44.859319,0.0],[25.904284,44.859452,0.0]]]],"type":"MultiPolygon"},"properties":{"stare":"Existent","operator":"Transgaz","detalii":"Împrejmuiri - E.T. București","_s":{"f":"#4daf4a","fo":0.0,"s":"#4daf4a","so":1.0,"w":3.63,"r":5.0},"_c":1}},{"type":"Feature","geometry":{"coordinates":[[[[25.969521,44.921388,0.0],[25.969655,44.921432,0.0],[25.969772,44.921299,0.0],[25.969638,44.921258,0.0],[25.969521,44.921388,0.0]]]],"type":"MultiPolygon"},"properties":{"stare":"Existent","operator":"Transgaz","detalii":"Împrejmuiri - E.T. București","_s":{"f":"#4daf4a","fo":0.0,"s":"#4daf4a","so":1.0,"w":3.63,"r":5.0},"_c":1}},{"type":"Feature","geometry":{"coordinates":[[[[25.796114,45.038392,0.0],[25.796407,45.038478,0.0],[25.796559,45.03825,0.0],[25.796266,45.038164,0.0],[25.796114,45.038392,0.0]]]],"type":"MultiPolygon"},"properties":{"stare":"Existent","operator":"Transgaz","detalii":"Împrejmuiri - E.T. București","_s":{"f":"#4daf4a","fo":0.0,"s":"#4daf4a","so":1.0,"w":3.63,"r":5.0},"_c":1}},{"type":"Feature","geometry":{"coordinates":[[[[25.695489,45.16161,0.0],[25.695724,45.161831,0.0],[25.695928,45.161803,0.0],[25.695912,45.161725,0.0],[25.695889,45.161727,0.0],[25.695855,45.161601,0.0],[25.695642,45.16162,0.0],[25.695632,45.161621,0.0],[25.695589,45.161553,0.0],[25.695574,45.161529,0.0],[25.695541,45.161538,0.0],[25.695457,45.161559,0.0],[25.695489,45.16161,0.0]]]],"type":"MultiPolygon"},"properties":{"stare":"Existent","operator":"Transgaz","detalii":"Împrejmuiri - E.T. București","_s":{"f":"#4daf4a","fo":0.0,"s":"#4daf4a","so":1.0,"w":3.63,"r":5.0},"_c":1}},{"type":"Feature","geometry":{"coordinates":[[[[25.621862,45.279371,0.0],[25.621867,45.279223,0.0],[25.621671,45.279213,0.0],[25.621604,45.278957,0.0],[25.62158,45.278943,0.0],[25.621464,45.278958,0.0],[25.621578,45.279228,0.0],[25.62155,45.279252,0.0],[25.621582,45.279364,0.0],[25.621598,45.279421,0.0],[25.621862,45.279371,0.0]]]],"type":"MultiPolygon"},"properties":{"stare":"Existent","operator":"Transgaz","detalii":"Împrejmuiri - E.T. București","_s":{"f":"#4daf4a","fo":0.0,"s":"#4daf4a","so":1.0,"w":3.63,"r":5.0},"_c":1}},{"type":"Feature","geometry":{"coordinates":[[[[26.016016,45.019073,0.0],[26.016519,45.019089,0.0],[26.016582,45.018746,0.0],[26.016079,45.01873,0.0],[26.016016,45.019073,0.0]]]],"type":"MultiPolygon"},"properties":{"stare":"Existent","operator":"Transgaz","detalii":"Împrejmuiri - E.T. București","_s":{"f":"#4daf4a","fo":0.0,"s":"#4daf4a","so":1.0,"w":3.63,"r":5.0},"_c":1}},{"type":"Feature","geometry":{"coordinates":[[[[25.822315,44.921919,0.0],[25.822551,44.921947,0.0],[25.822565,44.921907,0.0],[25.822325,44.921873,0.0],[25.822315,44.921919,0.0]]]],"type":"MultiPolygon"},"properties":{"stare":"Existent","operator":"Transgaz","detalii":"Împrejmuiri - E.T. București","_s":{"f":"#4daf4a","fo":0.0,"s":"#4daf4a","so":1.0,"w":3.63,"r":5.0},"_c":1}},{"type":"Feature","geometry":{"coordinates":[[[[25.980863,44.882996,0.0],[25.980896,44.882983,0.0],[25.980874,44.882956,0.0],[25.980842,44.882969,0.0],[25.980863,44.882996,0.0]]]],"type":"MultiPolygon"},"properties":{"stare":"Existent","operator":"Transgaz","detalii":"Împrejmuiri - E.T. București","_s":{"f":"#4daf4a","fo":0.0,"s":"#4daf4a","so":1.0,"w":3.63,"r":5.0},"_c":1}},{"type":"Feature","geometry":{"coordinates":[[[[26.153264,44.951703,0.0],[26.153474,44.951722,0.0],[26.153488,44.951641,0.0],[26.15328,44.951622,0.0],[26.153264,44.951703,0.0]]]],"type":"MultiPolygon"},"properties":{"stare":"Existent","operator":"Transgaz","detalii":"Împrejmuiri - E.T. București","_s":{"f":"#4daf4a","fo":0.0,"s":"#4daf4a","so":1.0,"w":3.63,"r":5.0},"_c":1}},{"type":"Feature","geometry":{"coordinates":[[[[26.123356,44.943467,0.0],[26.123181,44.943504,0.0],[26.123223,44.94359,0.0],[26.123394,44.943551,0.0],[26.123356,44.943467,0.0]]]],"type":"MultiPolygon"},"properties":{"stare":"Existent","operator":"Transgaz","detalii":"Împrejmuiri - E.T. București","_s":{"f":"#4daf4a","fo":0.0,"s":"#4daf4a","so":1.0,"w":3.63,"r":5.0},"_c":1}},{"type":"Feature","geometry":{"coordinates":[[[[25.711617,45.135385,0.0],[25.711474,45.135476,0.0],[25.711706,45.13565,0.0],[25.711855,45.135552,0.0],[25.711617,45.135385,0.0]]]],"type":"MultiPolygon"},"properties":{"stare":"Existent","operator":"Transgaz","detalii":"Împrejmuiri - E.T. București","_s":{"f":"#4daf4a","fo":0.0,"s":"#4daf4a","so":1.0,"w":3.63,"r":5.0},"_c":1}},{"type":"Feature","geometry":{"coordinates":[[[[25.718327,45.127877,0.0],[25.718324,45.127825,0.0],[25.718237,45.127831,0.0],[25.718246,45.127885,0.0],[25.718327,45.127877,0.0]]]],"type":"MultiPolygon"},"properties":{"stare":"Existent","operator":"Transgaz","detalii":"Împrejmuiri - E.T. București","_s":{"f":"#4daf4a","fo":0.0,"s":"#4daf4a","so":1.0,"w":3.63,"r":5.0},"_c":1}},{"type":"Feature","geometry":{"coordinates":[[[[25.937494,44.957551,0.0],[25.937526,44.957534,0.0],[25.937498,44.95751,0.0],[25.937467,44.957528,0.0],[25.937494,44.957551,0.0]]]],"type":"MultiPolygon"},"properties":{"stare":"Existent","operator":"Transgaz","detalii":"Împrejmuiri - E.T. București","_s":{"f":"#4daf4a","fo":0.0,"s":"#4daf4a","so":1.0,"w":3.63,"r":5.0},"_c":1}},{"type":"Feature","geometry":{"coordinates":[[[[25.827355,44.954637,0.0],[25.827643,44.954733,0.0],[25.827735,44.954508,0.0],[25.827468,44.954418,0.0],[25.827444,44.954431,0.0],[25.827355,44.954637,0.0]]]],"type":"MultiPolygon"},"properties":{"stare":"Existent","operator":"Transgaz","detalii":"Împrejmuiri - E.T. București","_s":{"f":"#4daf4a","fo":0.0,"s":"#4daf4a","so":1.0,"w":3.63,"r":5.0},"_c":1}},{"type":"Feature","geometry":{"coordinates":[[[[26.048018,44.988533,0.0],[26.048084,44.988494,0.0],[26.04814,44.988529,0.0],[26.048352,44.988348,0.0],[26.048211,44.988206,0.0],[26.048073,44.988067,0.0],[26.047767,44.988379,0.0],[26.048018,44.988533,0.0]]]],"type":"MultiPolygon"},"properties":{"stare":"Existent","operator":"Transgaz","detalii":"Împrejmuiri - E.T. București","_s":{"f":"#4daf4a","fo":0.0,"s":"#4daf4a","so":1.0,"w":3.63,"r":5.0},"_c":1}},{"type":"Feature","geometry":{"coordinates":[[[[26.019843,44.88499,0.0],[26.019826,44.88503,0.0],[26.019854,44.885035,0.0],[26.019871,44.884995,0.0],[26.019843,44.88499,0.0]]]],"type":"MultiPolygon"},"properties":{"stare":"Existent","operator":"Transgaz","detalii":"Împrejmuiri - E.T. București","_s":{"f":"#4daf4a","fo":0.0,"s":"#4daf4a","so":1.0,"w":3.63,"r":5.0},"_c":1}},{"type":"Feature","geometry":{"coordinates":[[[[26.038172,44.905917,0.0],[26.038234,44.905961,0.0],[26.038254,44.905945,0.0],[26.038191,44.905902,0.0],[26.038172,44.905917,0.0]]]],"type":"MultiPolygon"},"properties":{"stare":"Existent","operator":"Transgaz","detalii":"Împrejmuiri - E.T. București","_s":{"f":"#4daf4a","fo":0.0,"s":"#4daf4a","so":1.0,"w":3.63,"r":5.0},"_c":1}},{"type":"Feature","geometry":{"coordinates":[[[[25.971493,44.958059,0.0],[25.971569,44.958052,0.0],[25.971565,44.958029,0.0],[25.971488,44.958037,0.0],[25.971493,44.958059,0.0]]]],"type":"MultiPolygon"},"properties":{"stare":"Existent","operator":"Transgaz","detalii":"Împrejmuiri - E.T. București","_s":{"f":"#4daf4a","fo":0.0,"s":"#4daf4a","so":1.0,"w":3.63,"r":5.0},"_c":1}},{"type":"Feature","geometry":{"coordinates":[[[[26.015219,44.9798,0.0],[26.015165,44.979794,0.0],[26.01515,44.979852,0.0],[26.015204,44.979859,0.0],[26.015219,44.9798,0.0]]]],"type":"MultiPolygon"},"properties":{"stare":"Existent","operator":"Transgaz","detalii":"Împrejmuiri - E.T. București","_s":{"f":"#4daf4a","fo":0.0,"s":"#4daf4a","so":1.0,"w":3.63,"r":5.0},"_c":1}},{"type":"Feature","geometry":{"coordinates":[[[[26.038184,44.958728,0.0],[26.038139,44.958707,0.0],[26.038114,44.95873,0.0],[26.038159,44.958752,0.0],[26.038184,44.958728,0.0]]]],"type":"MultiPolygon"},"properties":{"stare":"Existent","operator":"Transgaz","detalii":"Împrejmuiri - E.T. București","_s":{"f":"#4daf4a","fo":0.0,"s":"#4daf4a","so":1.0,"w":3.63,"r":5.0},"_c":1}},{"type":"Feature","geometry":{"coordinates":[[[[26.060093,44.954245,0.0],[26.060185,44.954185,0.0],[26.060233,44.954225,0.0],[26.060253,44.954214,0.0],[26.060177,44.95415,0.0],[26.060067,44.954224,0.0],[26.060093,44.954245,0.0]]]],"type":"MultiPolygon"},"properties":{"stare":"Existent","operator":"Transgaz","detalii":"Împrejmuiri - E.T. București","_s":{"f":"#4daf4a","fo":0.0,"s":"#4daf4a","so":1.0,"w":3.63,"r":5.0},"_c":1}},{"type":"Feature","geometry":{"coordinates":[[[[25.648488,45.193788,0.0],[25.648134,45.193718,0.0],[25.64806,45.19391,0.0],[25.648415,45.193979,0.0],[25.648488,45.193788,0.0]]]],"type":"MultiPolygon"},"properties":{"stare":"Existent","operator":"Transgaz","detalii":"Împrejmuiri - E.T. București","_s":{"f":"#4daf4a","fo":0.0,"s":"#4daf4a","so":1.0,"w":3.63,"r":5.0},"_c":1}},{"type":"Feature","geometry":{"coordinates":[[[[25.983838,44.88459,0.0],[25.983772,44.884543,0.0],[25.983725,44.884576,0.0],[25.983795,44.884622,0.0],[25.983838,44.88459,0.0]]]],"type":"MultiPolygon"},"properties":{"stare":"Existent","operator":"Transgaz","detalii":"Împrejmuiri - E.T. București","_s":{"f":"#4daf4a","fo":0.0,"s":"#4daf4a","so":1.0,"w":3.63,"r":5.0},"_c":1}},{"type":"Feature","geometry":{"coordinates":[[[[25.757834,45.094678,0.0],[25.758002,45.094733,0.0],[25.758312,45.094304,0.0],[25.758237,45.094278,0.0],[25.758252,45.094254,0.0],[25.758196,45.094233,0.0],[25.758174,45.094258,0.0],[25.758142,45.094248,0.0],[25.758002,45.094442,0.0],[25.758111,45.094479,0.0],[25.758002,45.094629,0.0],[25.757895,45.094592,0.0],[25.757834,45.094678,0.0]]]],"type":"MultiPolygon"},"properties":{"stare":"Existent","operator":"Transgaz","detalii":"Împrejmuiri - E.T. București","_s":{"f":"#4daf4a","fo":0.0,"s":"#4daf4a","so":1.0,"w":3.63,"r":5.0},"_c":1}},{"type":"Feature","geometry":{"coordinates":[[[[25.751829,45.105246,0.0],[25.751747,45.105269,0.0],[25.751841,45.105408,0.0],[25.751921,45.105383,0.0],[25.751829,45.105246,0.0]]]],"type":"MultiPolygon"},"properties":{"stare":"Existent","operator":"Transgaz","detalii":"Împrejmuiri - E.T. București","_s":{"f":"#4daf4a","fo":0.0,"s":"#4daf4a","so":1.0,"w":3.63,"r":5.0},"_c":1}},{"type":"Feature","geometry":{"coordinates":[[[[25.797128,45.022036,0.0],[25.7974,45.022132,0.0],[25.797455,45.021967,0.0],[25.797159,45.021882,0.0],[25.797128,45.022036,0.0]]]],"type":"MultiPolygon"},"properties":{"stare":"Existent","operator":"Transgaz","detalii":"Împrejmuiri - E.T. București","_s":{"f":"#4daf4a","fo":0.0,"s":"#4daf4a","so":1.0,"w":3.63,"r":5.0},"_c":1}},{"type":"Feature","geometry":{"coordinates":[[[[25.899608,44.965059,0.0],[25.899609,44.965166,0.0],[25.899735,44.965165,0.0],[25.899733,44.965058,0.0],[25.899608,44.965059,0.0]]]],"type":"MultiPolygon"},"properties":{"stare":"Existent","operator":"Transgaz","detalii":"Împrejmuiri - E.T. București","_s":{"f":"#4daf4a","fo":0.0,"s":"#4daf4a","so":1.0,"w":3.63,"r":5.0},"_c":1}},{"type":"Feature","geometry":{"coordinates":[[[[25.661821,45.204198,0.0],[25.661846,45.204212,0.0],[25.661879,45.204184,0.0],[25.661854,45.20417,0.0],[25.661821,45.204198,0.0]]]],"type":"MultiPolygon"},"properties":{"stare":"Existent","operator":"Transgaz","detalii":"Împrejmuiri - E.T. București","_s":{"f":"#4daf4a","fo":0.0,"s":"#4daf4a","so":1.0,"w":3.63,"r":5.0},"_c":1}},{"type":"Feature","geometry":{"coordinates":[[[[26.106828,44.93569,0.0],[26.106848,44.935702,0.0],[26.106868,44.935684,0.0],[26.106847,44.935672,0.0],[26.106828,44.93569,0.0]]]],"type":"MultiPolygon"},"properties":{"stare":"Existent","operator":"Transgaz","detalii":"Împrejmuiri - E.T. București","_s":{"f":"#4daf4a","fo":0.0,"s":"#4daf4a","so":1.0,"w":3.63,"r":5.0},"_c":1}},{"type":"Feature","geometry":{"coordinates":[[[[25.911093,44.816926,0.0],[25.911218,44.816863,0.0],[25.911105,44.816754,0.0],[25.910981,44.816816,0.0],[25.911093,44.816926,0.0]]]],"type":"MultiPolygon"},"properties":{"stare":"Existent","operator":"Transgaz","detalii":"Împrejmuiri - E.T. București","_s":{"f":"#4daf4a","fo":0.0,"s":"#4daf4a","so":1.0,"w":3.63,"r":5.0},"_c":1}},{"type":"Feature","geometry":{"coordinates":[[[[25.745124,45.048242,0.0],[25.745301,45.047733,0.0],[25.745231,45.047715,0.0],[25.745122,45.048058,0.0],[25.745039,45.048042,0.0],[25.744981,45.048216,0.0],[25.745124,45.048242,0.0]]]],"type":"MultiPolygon"},"properties":{"stare":"Existent","operator":"Transgaz","detalii":"Împrejmuiri - E.T. București","_s":{"f":"#4daf4a","fo":0.0,"s":"#4daf4a","so":1.0,"w":3.63,"r":5.0},"_c":1}},{"type":"Feature","geometry":{"coordinates":[[[[25.634045,45.136877,0.0],[25.634221,45.136941,0.0],[25.634341,45.136774,0.0],[25.634172,45.136712,0.0],[25.634045,45.136877,0.0]]]],"type":"MultiPolygon"},"properties":{"stare":"Existent","operator":"Transgaz","detalii":"Împrejmuiri - E.T. București","_s":{"f":"#4daf4a","fo":0.0,"s":"#4daf4a","so":1.0,"w":3.63,"r":5.0},"_c":1}},{"type":"Feature","geometry":{"coordinates":[[[[25.743247,44.971627,0.0],[25.743424,44.971623,0.0],[25.743406,44.971336,0.0],[25.743233,44.97134,0.0],[25.743247,44.971627,0.0]]]],"type":"MultiPolygon"},"properties":{"stare":"Existent","operator":"Transgaz","detalii":"Împrejmuiri - E.T. București","_s":{"f":"#4daf4a","fo":0.0,"s":"#4daf4a","so":1.0,"w":3.63,"r":5.0},"_c":1}},{"type":"Feature","geometry":{"coordinates":[[[[25.743315,44.971075,0.0],[25.743375,44.971073,0.0],[25.743373,44.971045,0.0],[25.743313,44.971046,0.0],[25.743315,44.971075,0.0]]]],"type":"MultiPolygon"},"properties":{"stare":"Existent","operator":"Transgaz","detalii":"Împrejmuiri - E.T. București","_s":{"f":"#4daf4a","fo":0.0,"s":"#4daf4a","so":1.0,"w":3.63,"r":5.0},"_c":1}},{"type":"Feature","geometry":{"coordinates":[[[[25.682623,45.177384,0.0],[25.682601,45.177401,0.0],[25.682626,45.177417,0.0],[25.682648,45.177399,0.0],[25.682623,45.177384,0.0]]]],"type":"MultiPolygon"},"properties":{"stare":"Existent","operator":"Transgaz","detalii":"Împrejmuiri - E.T. București","_s":{"f":"#4daf4a","fo":0.0,"s":"#4daf4a","so":1.0,"w":3.63,"r":5.0},"_c":1}},{"type":"Feature","geometry":{"coordinates":[[[[25.682576,45.177463,0.0],[25.682559,45.177483,0.0],[25.682589,45.177496,0.0],[25.682606,45.177476,0.0],[25.682576,45.177463,0.0]]]],"type":"MultiPolygon"},"properties":{"stare":"Existent","operator":"Transgaz","detalii":"Împrejmuiri - E.T. București","_s":{"f":"#4daf4a","fo":0.0,"s":"#4daf4a","so":1.0,"w":3.63,"r":5.0},"_c":1}},{"type":"Feature","geometry":{"coordinates":[[[[25.632512,45.238165,0.0],[25.632585,45.238176,0.0],[25.632661,45.237937,0.0],[25.632632,45.237933,0.0],[25.632655,45.237861,0.0],[25.632612,45.237853,0.0],[25.632512,45.238165,0.0]]]],"type":"MultiPolygon"},"properties":{"stare":"Existent","operator":"Transgaz","detalii":"Împrejmuiri - E.T. București","_s":{"f":"#4daf4a","fo":0.0,"s":"#4daf4a","so":1.0,"w":3.63,"r":5.0},"_c":1}},{"type":"Feature","geometry":{"coordinates":[[[[25.998236,44.879641,0.0],[25.998258,44.879666,0.0],[25.99889,44.879399,0.0],[25.998568,44.879017,0.0],[25.997743,44.879366,0.0],[25.997916,44.879558,0.0],[25.997852,44.879585,0.0],[25.997993,44.879741,0.0],[25.998236,44.879641,0.0]]]],"type":"MultiPolygon"},"properties":{"stare":"Existent","operator":"Transgaz","detalii":"Împrejmuiri - E.T. București","_s":{"f":"#4daf4a","fo":0.0,"s":"#4daf4a","so":1.0,"w":3.63,"r":5.0},"_c":1}},{"type":"Feature","geometry":{"coordinates":[[[[25.989059,44.882839,0.0],[25.989081,44.88283,0.0],[25.989069,44.882814,0.0],[25.989047,44.882823,0.0],[25.989059,44.882839,0.0]]]],"type":"MultiPolygon"},"properties":{"stare":"Existent","operator":"Transgaz","detalii":"Împrejmuiri - E.T. București","_s":{"f":"#4daf4a","fo":0.0,"s":"#4daf4a","so":1.0,"w":3.63,"r":5.0},"_c":1}},{"type":"Feature","geometry":{"coordinates":[[[[26.031089,44.963467,0.0],[26.031297,44.963238,0.0],[26.030869,44.963061,0.0],[26.030845,44.963061,0.0],[26.030823,44.963063,0.0],[26.030681,44.963224,0.0],[26.03067,44.963238,0.0],[26.030673,44.963254,0.0],[26.030692,44.963292,0.0],[26.031089,44.963467,0.0]]]],"type":"MultiPolygon"},"properties":{"stare":"Existent","operator":"Transgaz","detalii":"Împrejmuiri - E.T. București","_s":{"f":"#4daf4a","fo":0.0,"s":"#4daf4a","so":1.0,"w":3.63,"r":5.0},"_c":1}},{"type":"Feature","geometry":{"coordinates":[[[[25.687704,45.102306,0.0],[25.687793,45.102305,0.0],[25.687792,45.102233,0.0],[25.687704,45.102234,0.0],[25.687704,45.102306,0.0]]]],"type":"MultiPolygon"},"properties":{"stare":"Existent","operator":"Transgaz","detalii":"Împrejmuiri - E.T. București","_s":{"f":"#4daf4a","fo":0.0,"s":"#4daf4a","so":1.0,"w":3.63,"r":5.0},"_c":1}},{"type":"Feature","geometry":{"coordinates":[[[[25.661443,45.119225,0.0],[25.661454,45.119222,0.0],[25.661447,45.119209,0.0],[25.661436,45.119212,0.0],[25.661443,45.119225,0.0]]]],"type":"MultiPolygon"},"properties":{"stare":"Existent","operator":"Transgaz","detalii":"Împrejmuiri - E.T. București","_s":{"f":"#4daf4a","fo":0.0,"s":"#4daf4a","so":1.0,"w":3.63,"r":5.0},"_c":1}},{"type":"Feature","geometry":{"coordinates":[[[[25.524798,45.306176,0.0],[25.524756,45.306326,0.0],[25.524712,45.306324,0.0],[25.524693,45.306388,0.0],[25.52478,45.306392,0.0],[25.524839,45.306187,0.0],[25.524798,45.306176,0.0]]]],"type":"MultiPolygon"},"properties":{"stare":"Existent","operator":"Transgaz","detalii":"Împrejmuiri - E.T. București","_s":{"f":"#4daf4a","fo":0.0,"s":"#4daf4a","so":1.0,"w":3.63,"r":5.0},"_c":1}},{"type":"Feature","geometry":{"coordinates":[[[[25.922202,44.925103,0.0],[25.922286,44.9251,0.0],[25.922297,44.92507,0.0],[25.922215,44.925072,0.0],[25.922202,44.925103,0.0]]]],"type":"MultiPolygon"},"properties":{"stare":"Existent","operator":"Transgaz","detalii":"Împrejmuiri - E.T. București","_s":{"f":"#4daf4a","fo":0.0,"s":"#4daf4a","so":1.0,"w":3.63,"r":5.0},"_c":1}},{"type":"Feature","geometry":{"coordinates":[[[[25.96012,44.938343,0.0],[25.960152,44.938352,0.0],[25.960162,44.938329,0.0],[25.960131,44.93832,0.0],[25.96012,44.938343,0.0]]]],"type":"MultiPolygon"},"properties":{"stare":"Existent","operator":"Transgaz","detalii":"Împrejmuiri - E.T. București","_s":{"f":"#4daf4a","fo":0.0,"s":"#4daf4a","so":1.0,"w":3.63,"r":5.0},"_c":1}},{"type":"Feature","geometry":{"coordinates":[[[[25.921428,44.966881,0.0],[25.921475,44.966883,0.0],[25.921475,44.966855,0.0],[25.92143,44.966856,0.0],[25.921428,44.966881,0.0]]]],"type":"MultiPolygon"},"properties":{"stare":"Existent","operator":"Transgaz","detalii":"Împrejmuiri - E.T. București","_s":{"f":"#4daf4a","fo":0.0,"s":"#4daf4a","so":1.0,"w":3.63,"r":5.0},"_c":1}},{"type":"Feature","geometry":{"coordinates":[[[[26.01664,45.019158,0.0],[26.018606,45.019171,0.0],[26.018437,45.018802,0.0],[26.018219,45.018482,0.0],[26.017396,45.018507,0.0],[26.016634,45.018966,0.0],[26.01664,45.019158,0.0]]]],"type":"MultiPolygon"},"properties":{"stare":"Existent","operator":"Transgaz","detalii":"Împrejmuiri - E.T. București","_s":{"f":"#4daf4a","fo":0.0,"s":"#4daf4a","so":1.0,"w":3.63,"r":5.0},"_c":1}},{"type":"Feature","geometry":{"coordinates":[[[[26.061665,44.954353,0.0],[26.061767,44.954417,0.0],[26.061795,44.954401,0.0],[26.061748,44.954362,0.0],[26.062286,44.954044,0.0],[26.061752,44.953804,0.0],[26.061309,44.954048,0.0],[26.061681,44.954339,0.0],[26.061665,44.954353,0.0]]]],"type":"MultiPolygon"},"properties":{"stare":"Existent","operator":"Transgaz","detalii":"Împrejmuiri - E.T. București","_s":{"f":"#4daf4a","fo":0.0,"s":"#4daf4a","so":1.0,"w":3.63,"r":5.0},"_c":1}},{"type":"Feature","geometry":{"coordinates":[[[[25.620813,45.277579,0.0],[25.620905,45.277622,0.0],[25.620934,45.27759,0.0],[25.620841,45.277547,0.0],[25.620813,45.277579,0.0]]]],"type":"MultiPolygon"},"properties":{"stare":"Existent","operator":"Transgaz","detalii":"Împrejmuiri - E.T. București","_s":{"f":"#4daf4a","fo":0.0,"s":"#4daf4a","so":1.0,"w":3.63,"r":5.0},"_c":1}},{"type":"Feature","geometry":{"coordinates":[[[[25.558644,45.324123,0.0],[25.558692,45.32413,0.0],[25.558703,45.324108,0.0],[25.558655,45.324101,0.0],[25.558644,45.324123,0.0]]]],"type":"MultiPolygon"},"properties":{"stare":"Existent","operator":"Transgaz","detalii":"Împrejmuiri - E.T. București","_s":{"f":"#4daf4a","fo":0.0,"s":"#4daf4a","so":1.0,"w":3.63,"r":5.0},"_c":1}},{"type":"Feature","geometry":{"coordinates":[[[[25.555791,45.32575,0.0],[25.55581,45.325693,0.0],[25.555757,45.325685,0.0],[25.555739,45.325742,0.0],[25.555791,45.32575,0.0]]]],"type":"MultiPolygon"},"properties":{"stare":"Existent","operator":"Transgaz","detalii":"Împrejmuiri - E.T. București","_s":{"f":"#4daf4a","fo":0.0,"s":"#4daf4a","so":1.0,"w":3.63,"r":5.0},"_c":1}},{"type":"Feature","geometry":{"coordinates":[[[[25.813985,44.918718,0.0],[25.814011,44.918731,0.0],[25.814057,44.918688,0.0],[25.814031,44.918675,0.0],[25.813985,44.918718,0.0]]]],"type":"MultiPolygon"},"properties":{"stare":"Existent","operator":"Transgaz","detalii":"Împrejmuiri - E.T. București","_s":{"f":"#4daf4a","fo":0.0,"s":"#4daf4a","so":1.0,"w":3.63,"r":5.0},"_c":1}},{"type":"Feature","geometry":{"coordinates":[[[[25.812662,44.920197,0.0],[25.812696,44.920209,0.0],[25.812735,44.920163,0.0],[25.812701,44.92015,0.0],[25.812662,44.920197,0.0]]]],"type":"MultiPolygon"},"properties":{"stare":"Existent","operator":"Transgaz","detalii":"Împrejmuiri - E.T. București","_s":{"f":"#4daf4a","fo":0.0,"s":"#4daf4a","so":1.0,"w":3.63,"r":5.0},"_c":1}},{"type":"Feature","geometry":{"coordinates":[[[[25.820375,44.912283,0.0],[25.820406,44.912291,0.0],[25.820421,44.912269,0.0],[25.82039,44.91226,0.0],[25.820375,44.912283,0.0]]]],"type":"MultiPolygon"},"properties":{"stare":"Existent","operator":"Transgaz","detalii":"Împrejmuiri - E.T. București","_s":{"f":"#4daf4a","fo":0.0,"s":"#4daf4a","so":1.0,"w":3.63,"r":5.0},"_c":1}},{"type":"Feature","geometry":{"coordinates":[[[[25.820407,44.911924,0.0],[25.820436,44.911931,0.0],[25.820458,44.911893,0.0],[25.820429,44.911885,0.0],[25.820407,44.911924,0.0]]]],"type":"MultiPolygon"},"properties":{"stare":"Existent","operator":"Transgaz","detalii":"Împrejmuiri - E.T. București","_s":{"f":"#4daf4a","fo":0.0,"s":"#4daf4a","so":1.0,"w":3.63,"r":5.0},"_c":1}},{"type":"Feature","geometry":{"coordinates":[[[[25.863915,44.833321,0.0],[25.864114,44.833449,0.0],[25.864148,44.833426,0.0],[25.86395,44.833291,0.0],[25.863915,44.833321,0.0]]]],"type":"MultiPolygon"},"properties":{"stare":"Existent","operator":"Transgaz","detalii":"Împrejmuiri - E.T. București","_s":{"f":"#4daf4a","fo":0.0,"s":"#4daf4a","so":1.0,"w":3.63,"r":5.0},"_c":1}},{"type":"Feature","geometry":{"coordinates":[[[[25.861663,44.831782,0.0],[25.861731,44.831792,0.0],[25.861736,44.831768,0.0],[25.861669,44.831759,0.0],[25.861663,44.831782,0.0]]]],"type":"MultiPolygon"},"properties":{"stare":"Existent","operator":"Transgaz","detalii":"Împrejmuiri - E.T. București","_s":{"f":"#4daf4a","fo":0.0,"s":"#4daf4a","so":1.0,"w":3.63,"r":5.0},"_c":1}},{"type":"Feature","geometry":{"coordinates":[[[[25.861768,44.83195,0.0],[25.861793,44.831965,0.0],[25.861821,44.831945,0.0],[25.861796,44.83193,0.0],[25.861768,44.83195,0.0]]]],"type":"MultiPolygon"},"properties":{"stare":"Existent","operator":"Transgaz","detalii":"Împrejmuiri - E.T. București","_s":{"f":"#4daf4a","fo":0.0,"s":"#4daf4a","so":1.0,"w":3.63,"r":5.0},"_c":1}},{"type":"Feature","geometry":{"coordinates":[[[[25.633533,45.187346,0.0],[25.633585,45.187355,0.0],[25.633601,45.18731,0.0],[25.633549,45.187301,0.0],[25.633533,45.187346,0.0]]]],"type":"MultiPolygon"},"properties":{"stare":"Existent","operator":"Transgaz","detalii":"Împrejmuiri - E.T. București","_s":{"f":"#4daf4a","fo":0.0,"s":"#4daf4a","so":1.0,"w":3.63,"r":5.0},"_c":1}},{"type":"Feature","geometry":{"coordinates":[[[[25.99726,44.980351,0.0],[25.997289,44.980365,0.0],[25.997308,44.980345,0.0],[25.997279,44.980332,0.0],[25.99726,44.980351,0.0]]]],"type":"MultiPolygon"},"properties":{"stare":"Existent","operator":"Transgaz","detalii":"Împrejmuiri - E.T. București","_s":{"f":"#4daf4a","fo":0.0,"s":"#4daf4a","so":1.0,"w":3.63,"r":5.0},"_c":1}},{"type":"Feature","geometry":{"coordinates":[[[[25.963383,44.9586,0.0],[25.963459,44.958586,0.0],[25.963435,44.958524,0.0],[25.963359,44.958538,0.0],[25.963383,44.9586,0.0]]]],"type":"MultiPolygon"},"properties":{"stare":"Existent","operator":"Transgaz","detalii":"Împrejmuiri - E.T. București","_s":{"f":"#4daf4a","fo":0.0,"s":"#4daf4a","so":1.0,"w":3.63,"r":5.0},"_c":1}},{"type":"Feature","geometry":{"coordinates":[[[[25.745733,45.100255,0.0],[25.745865,45.100276,0.0],[25.745876,45.100256,0.0],[25.745746,45.100235,0.0],[25.745733,45.100255,0.0]]]],"type":"MultiPolygon"},"properties":{"stare":"Existent","operator":"Transgaz","detalii":"Împrejmuiri - E.T. București","_s":{"f":"#4daf4a","fo":0.0,"s":"#4daf4a","so":1.0,"w":3.63,"r":5.0},"_c":1}},{"type":"Feature","geometry":{"coordinates":[[[[26.161106,44.952737,0.0],[26.161528,44.952756,0.0],[26.161525,44.952656,0.0],[26.161109,44.952638,0.0],[26.161106,44.952737,0.0]]]],"type":"MultiPolygon"},"properties":{"stare":"Existent","operator":"Transgaz","detalii":"Împrejmuiri - E.T. București","_s":{"f":"#4daf4a","fo":0.0,"s":"#4daf4a","so":1.0,"w":3.63,"r":5.0},"_c":1}},{"type":"Feature","geometry":{"coordinates":[[[[25.926393,44.923889,0.0],[25.926424,44.923877,0.0],[25.926409,44.923857,0.0],[25.926378,44.923869,0.0],[25.926393,44.923889,0.0]]]],"type":"MultiPolygon"},"properties":{"stare":"Existent","operator":"Transgaz","detalii":"Împrejmuiri - E.T. București","_s":{"f":"#4daf4a","fo":0.0,"s":"#4daf4a","so":1.0,"w":3.63,"r":5.0},"_c":1}},{"type":"Feature","geometry":{"coordinates":[[[[25.834889,44.956995,0.0],[25.834924,44.956967,0.0],[25.834904,44.956954,0.0],[25.834869,44.956981,0.0],[25.834889,44.956995,0.0]]]],"type":"MultiPolygon"},"properties":{"stare":"Existent","operator":"Transgaz","detalii":"Împrejmuiri - E.T. București","_s":{"f":"#4daf4a","fo":0.0,"s":"#4daf4a","so":1.0,"w":3.63,"r":5.0},"_c":1}},{"type":"Feature","geometry":{"coordinates":[[[[25.857615,44.928039,0.0],[25.857716,44.928048,0.0],[25.857749,44.927893,0.0],[25.857649,44.927883,0.0],[25.857615,44.928039,0.0]]]],"type":"MultiPolygon"},"properties":{"stare":"Existent","operator":"Transgaz","detalii":"Împrejmuiri - E.T. București","_s":{"f":"#4daf4a","fo":0.0,"s":"#4daf4a","so":1.0,"w":3.63,"r":5.0},"_c":1}},{"type":"Feature","geometry":{"coordinates":[[[[25.910198,44.83607,0.0],[25.910215,44.836066,0.0],[25.910208,44.836054,0.0],[25.910191,44.836058,0.0],[25.910198,44.83607,0.0]]]],"type":"MultiPolygon"},"properties":{"stare":"Existent","operator":"Transgaz","detalii":"Împrejmuiri - E.T. București","_s":{"f":"#4daf4a","fo":0.0,"s":"#4daf4a","so":1.0,"w":3.63,"r":5.0},"_c":1}},{"type":"Feature","geometry":{"coordinates":[[[[25.551676,45.334708,0.0],[25.551094,45.334253,0.0],[25.551006,45.334305,0.0],[25.551075,45.334357,0.0],[25.551094,45.334346,0.0],[25.551213,45.334441,0.0],[25.551178,45.334467,0.0],[25.55124,45.334511,0.0],[25.551117,45.334598,0.0],[25.551444,45.33485,0.0],[25.551676,45.334708,0.0]]]],"type":"MultiPolygon"},"properties":{"stare":"Existent","operator":"Transgaz","detalii":"Împrejmuiri - E.T. București","_s":{"f":"#4daf4a","fo":0.0,"s":"#4daf4a","so":1.0,"w":3.63,"r":5.0},"_c":1}},{"type":"Feature","geometry":{"coordinates":[[[[25.618032,45.276717,0.0],[25.618193,45.276661,0.0],[25.61794,45.276303,0.0],[25.617908,45.276279,0.0],[25.617897,45.276263,0.0],[25.617749,45.276313,0.0],[25.618032,45.276717,0.0]]]],"type":"MultiPolygon"},"properties":{"stare":"Existent","operator":"Transgaz","detalii":"Împrejmuiri - E.T. București","_s":{"f":"#4daf4a","fo":0.0,"s":"#4daf4a","so":1.0,"w":3.63,"r":5.0},"_c":1}},{"type":"Feature","geometry":{"coordinates":[[[[25.92178,44.925053,0.0],[25.921778,44.924988,0.0],[25.922188,44.924993,0.0],[25.922188,44.924884,0.0],[25.922358,44.924889,0.0],[25.922376,44.924612,0.0],[25.921618,44.924573,0.0],[25.921505,44.924568,0.0],[25.921546,44.925057,0.0],[25.92178,44.925053,0.0]]]],"type":"MultiPolygon"},"properties":{"stare":"Existent","operator":"Transgaz","detalii":"Împrejmuiri - E.T. București","_s":{"f":"#4daf4a","fo":0.0,"s":"#4daf4a","so":1.0,"w":3.63,"r":5.0},"_c":1}},{"type":"Feature","geometry":{"coordinates":[[[[25.564,45.317265,0.0],[25.564078,45.317253,0.0],[25.564062,45.317225,0.0],[25.563988,45.317237,0.0],[25.564,45.317265,0.0]]]],"type":"MultiPolygon"},"properties":{"stare":"Existent","operator":"Transgaz","detalii":"Împrejmuiri - E.T. București","_s":{"f":"#4daf4a","fo":0.0,"s":"#4daf4a","so":1.0,"w":3.63,"r":5.0},"_c":1}},{"type":"Feature","geometry":{"coordinates":[[[[25.616777,45.2836,0.0],[25.616805,45.283605,0.0],[25.616832,45.283559,0.0],[25.616802,45.283553,0.0],[25.616777,45.2836,0.0]]]],"type":"MultiPolygon"},"properties":{"stare":"Existent","operator":"Transgaz","detalii":"Împrejmuiri - E.T. București","_s":{"f":"#4daf4a","fo":0.0,"s":"#4daf4a","so":1.0,"w":3.63,"r":5.0},"_c":1}},{"type":"Feature","geometry":{"coordinates":[[[[25.686371,45.174577,0.0],[25.686411,45.174583,0.0],[25.686432,45.174525,0.0],[25.686395,45.174518,0.0],[25.686371,45.174577,0.0]]]],"type":"MultiPolygon"},"properties":{"stare":"Existent","operator":"Transgaz","detalii":"Împrejmuiri - E.T. București","_s":{"f":"#4daf4a","fo":0.0,"s":"#4daf4a","so":1.0,"w":3.63,"r":5.0},"_c":1}},{"type":"Feature","geometry":{"coordinates":[[[[25.689764,45.16206,0.0],[25.689863,45.162064,0.0],[25.689871,45.162019,0.0],[25.689783,45.161994,0.0],[25.689764,45.16206,0.0]]]],"type":"MultiPolygon"},"properties":{"stare":"Existent","operator":"Transgaz","detalii":"Împrejmuiri - E.T. București","_s":{"f":"#4daf4a","fo":0.0,"s":"#4daf4a","so":1.0,"w":3.63,"r":5.0},"_c":1}},{"type":"Feature","geometry":{"coordinates":[[[[25.759396,45.087,0.0],[25.759465,45.087026,0.0],[25.759504,45.086957,0.0],[25.759444,45.086944,0.0],[25.759396,45.087,0.0]]]],"type":"MultiPolygon"},"properties":{"stare":"Existent","operator":"Transgaz","detalii":"Împrejmuiri - E.T. București","_s":{"f":"#4daf4a","fo":0.0,"s":"#4daf4a","so":1.0,"w":3.63,"r":5.0},"_c":1}},{"type":"Feature","geometry":{"coordinates":[[[[25.823821,45.022518,0.0],[25.823857,45.022496,0.0],[25.823839,45.022479,0.0],[25.823804,45.0225,0.0],[25.823821,45.022518,0.0]]]],"type":"MultiPolygon"},"properties":{"stare":"Existent","operator":"Transgaz","detalii":"Împrejmuiri - E.T. București","_s":{"f":"#4daf4a","fo":0.0,"s":"#4daf4a","so":1.0,"w":3.63,"r":5.0},"_c":1}},{"type":"Feature","geometry":{"coordinates":[[[[25.53323,45.301395,0.0],[25.533253,45.301381,0.0],[25.533232,45.301368,0.0],[25.533212,45.301384,0.0],[25.53323,45.301395,0.0]]]],"type":"MultiPolygon"},"properties":{"stare":"Existent","operator":"Transgaz","detalii":"Împrejmuiri - E.T. București","_s":{"f":"#4daf4a","fo":0.0,"s":"#4daf4a","so":1.0,"w":3.63,"r":5.0},"_c":1}},{"type":"Feature","geometry":{"coordinates":[[[[26.060461,44.924802,0.0],[26.060499,44.92482,0.0],[26.060513,44.924802,0.0],[26.060478,44.924786,0.0],[26.060461,44.924802,0.0]]]],"type":"MultiPolygon"},"properties":{"stare":"Existent","operator":"Transgaz","detalii":"Împrejmuiri - E.T. București","_s":{"f":"#4daf4a","fo":0.0,"s":"#4daf4a","so":1.0,"w":3.63,"r":5.0},"_c":1}},{"type":"Feature","geometry":{"coordinates":[[[[25.918739,44.964716,0.0],[25.918762,44.964713,0.0],[25.918754,44.964684,0.0],[25.918728,44.964689,0.0],[25.918739,44.964716,0.0]]]],"type":"MultiPolygon"},"properties":{"stare":"Existent","operator":"Transgaz","detalii":"Împrejmuiri - E.T. București","_s":{"f":"#4daf4a","fo":0.0,"s":"#4daf4a","so":1.0,"w":3.63,"r":5.0},"_c":1}},{"type":"Feature","geometry":{"coordinates":[[[[25.63623,45.228779,0.0],[25.636255,45.228777,0.0],[25.63625,45.22875,0.0],[25.636226,45.228753,0.0],[25.63623,45.228779,0.0]]]],"type":"MultiPolygon"},"properties":{"stare":"Existent","operator":"Transgaz","detalii":"Împrejmuiri - E.T. București","_s":{"f":"#4daf4a","fo":0.0,"s":"#4daf4a","so":1.0,"w":3.63,"r":5.0},"_c":1}},{"type":"Feature","geometry":{"coordinates":[[[[25.92421,44.84538,0.0],[25.92426,44.845371,0.0],[25.92425,44.845333,0.0],[25.924199,44.845342,0.0],[25.92421,44.84538,0.0]]]],"type":"MultiPolygon"},"properties":{"stare":"Existent","operator":"Transgaz","detalii":"Împrejmuiri - E.T. București","_s":{"f":"#4daf4a","fo":0.0,"s":"#4daf4a","so":1.0,"w":3.63,"r":5.0},"_c":1}},{"type":"Feature","geometry":{"coordinates":[[[[26.019146,45.01506,0.0],[26.019169,45.015026,0.0],[26.019132,45.015015,0.0],[26.019112,45.01505,0.0],[26.019146,45.01506,0.0]]]],"type":"MultiPolygon"},"properties":{"stare":"Existent","operator":"Transgaz","detalii":"Împrejmuiri - E.T. București","_s":{"f":"#4daf4a","fo":0.0,"s":"#4daf4a","so":1.0,"w":3.63,"r":5.0},"_c":1}},{"type":"Feature","geometry":{"coordinates":[[[[26.015383,44.982975,0.0],[26.015413,44.98298,0.0],[26.015421,44.982963,0.0],[26.015387,44.982957,0.0],[26.015383,44.982975,0.0]]]],"type":"MultiPolygon"},"properties":{"stare":"Existent","operator":"Transgaz","detalii":"Împrejmuiri - E.T. București","_s":{"f":"#4daf4a","fo":0.0,"s":"#4daf4a","so":1.0,"w":3.63,"r":5.0},"_c":1}},{"type":"Feature","geometry":{"coordinates":[[[[26.123134,44.94247,0.0],[26.123162,44.942468,0.0],[26.123147,44.942419,0.0],[26.123122,44.942422,0.0],[26.123134,44.94247,0.0]]]],"type":"MultiPolygon"},"properties":{"stare":"Existent","operator":"Transgaz","detalii":"Împrejmuiri - E.T. București","_s":{"f":"#4daf4a","fo":0.0,"s":"#4daf4a","so":1.0,"w":3.63,"r":5.0},"_c":1}},{"type":"Feature","geometry":{"coordinates":[[[[25.896348,44.862831,0.0],[25.896356,44.862816,0.0],[25.896325,44.862807,0.0],[25.896313,44.862824,0.0],[25.896348,44.862831,0.0]]]],"type":"MultiPolygon"},"properties":{"stare":"Existent","operator":"Transgaz","detalii":"Împrejmuiri - E.T. București","_s":{"f":"#4daf4a","fo":0.0,"s":"#4daf4a","so":1.0,"w":3.63,"r":5.0},"_c":1}},{"type":"Feature","geometry":{"coordinates":[[[[26.06772,44.927776,0.0],[26.067766,44.927784,0.0],[26.067778,44.927762,0.0],[26.067729,44.927753,0.0],[26.06772,44.927776,0.0]]]],"type":"MultiPolygon"},"properties":{"stare":"Existent","operator":"Transgaz","detalii":"Împrejmuiri - E.T. București","_s":{"f":"#4daf4a","fo":0.0,"s":"#4daf4a","so":1.0,"w":3.63,"r":5.0},"_c":1}},{"type":"Feature","geometry":{"coordinates":[[[[25.987608,44.926536,0.0],[25.987648,44.926549,0.0],[25.987677,44.92651,0.0],[25.987633,44.926496,0.0],[25.987608,44.926536,0.0]]]],"type":"MultiPolygon"},"properties":{"stare":"Existent","operator":"Transgaz","detalii":"Împrejmuiri - E.T. București","_s":{"f":"#4daf4a","fo":0.0,"s":"#4daf4a","so":1.0,"w":3.63,"r":5.0},"_c":1}},{"type":"Feature","geometry":{"coordinates":[[[[25.978617,44.932932,0.0],[25.978681,44.932929,0.0],[25.978678,44.932905,0.0],[25.978616,44.932908,0.0],[25.978617,44.932932,0.0]]]],"type":"MultiPolygon"},"properties":{"stare":"Existent","operator":"Transgaz","detalii":"Împrejmuiri - E.T. București","_s":{"f":"#4daf4a","fo":0.0,"s":"#4daf4a","so":1.0,"w":3.63,"r":5.0},"_c":1}},{"type":"Feature","geometry":{"coordinates":[[[[25.967412,44.93207,0.0],[25.96745,44.932045,0.0],[25.967424,44.932027,0.0],[25.967386,44.93205,0.0],[25.967412,44.93207,0.0]]]],"type":"MultiPolygon"},"properties":{"stare":"Existent","operator":"Transgaz","detalii":"Împrejmuiri - E.T. București","_s":{"f":"#4daf4a","fo":0.0,"s":"#4daf4a","so":1.0,"w":3.63,"r":5.0},"_c":1}},{"type":"Feature","geometry":{"coordinates":[[[[25.960541,44.943991,0.0],[25.960557,44.943984,0.0],[25.960546,44.943972,0.0],[25.96053,44.943979,0.0],[25.960541,44.943991,0.0]]]],"type":"MultiPolygon"},"properties":{"stare":"Existent","operator":"Transgaz","detalii":"Împrejmuiri - E.T. București","_s":{"f":"#4daf4a","fo":0.0,"s":"#4daf4a","so":1.0,"w":3.63,"r":5.0},"_c":1}},{"type":"Feature","geometry":{"coordinates":[[[[25.933111,44.959679,0.0],[25.933134,44.959685,0.0],[25.933146,44.959657,0.0],[25.933123,44.959651,0.0],[25.933111,44.959679,0.0]]]],"type":"MultiPolygon"},"properties":{"stare":"Existent","operator":"Transgaz","detalii":"Împrejmuiri - E.T. București","_s":{"f":"#4daf4a","fo":0.0,"s":"#4daf4a","so":1.0,"w":3.63,"r":5.0},"_c":1}},{"type":"Feature","geometry":{"coordinates":[[[[25.933268,44.959708,0.0],[25.933335,44.959724,0.0],[25.933352,44.959694,0.0],[25.933287,44.959678,0.0],[25.933268,44.959708,0.0]]]],"type":"MultiPolygon"},"properties":{"stare":"Existent","operator":"Transgaz","detalii":"Împrejmuiri - E.T. București","_s":{"f":"#4daf4a","fo":0.0,"s":"#4daf4a","so":1.0,"w":3.63,"r":5.0},"_c":1}},{"type":"Feature","geometry":{"coordinates":[[[[25.524158,45.409055,0.0],[25.524104,45.409388,0.0],[25.524183,45.409401,0.0],[25.524521,45.409239,0.0],[25.524538,45.409137,0.0],[25.524389,45.409121,0.0],[25.524397,45.409074,0.0],[25.524158,45.409055,0.0]]]],"type":"MultiPolygon"},"properties":{"stare":"Existent","operator":"Transgaz","detalii":"Împrejmuiri - E.T. Brașov","_s":{"f":"#4daf4a","fo":0.0,"s":"#4daf4a","so":1.0,"w":3.63,"r":5.0},"_c":0}},{"type":"Feature","geometry":{"coordinates":[[[[25.530813,45.385198,0.0],[25.530786,45.385138,0.0],[25.530725,45.385151,0.0],[25.530752,45.385211,0.0],[25.530813,45.385198,0.0]]]],"type":"MultiPolygon"},"properties":{"stare":"Existent","operator":"Transgaz","detalii":"Împrejmuiri - E.T. Brașov","_s":{"f":"#4daf4a","fo":0.0,"s":"#4daf4a","so":1.0,"w":3.63,"r":5.0},"_c":0}},{"type":"Feature","geometry":{"coordinates":[[[[25.52306,45.409664,0.0],[25.523018,45.409697,0.0],[25.523047,45.409714,0.0],[25.523084,45.40968,0.0],[25.52306,45.409664,0.0]]]],"type":"MultiPolygon"},"properties":{"stare":"Existent","operator":"Transgaz","detalii":"Împrejmuiri - E.T. Brașov","_s":{"f":"#4daf4a","fo":0.0,"s":"#4daf4a","so":1.0,"w":3.63,"r":5.0},"_c":0}},{"type":"Feature","geometry":{"coordinates":[[[[25.555873,45.445843,0.0],[25.555795,45.445878,0.0],[25.555882,45.445902,0.0],[25.555964,45.445976,0.0],[25.556026,45.445938,0.0],[25.556059,45.445896,0.0],[25.555946,45.445865,0.0],[25.555946,45.445849,0.0],[25.555873,45.445843,0.0]]]],"type":"MultiPolygon"},"properties":{"stare":"Existent","operator":"Transgaz","detalii":"Împrejmuiri - E.T. Brașov","_s":{"f":"#4daf4a","fo":0.0,"s":"#4daf4a","so":1.0,"w":3.63,"r":5.0},"_c":0}},{"type":"Feature","geometry":{"coordinates":[[[[25.531452,45.429974,0.0],[25.53145,45.429884,0.0],[25.531303,45.429885,0.0],[25.53129,45.430065,0.0],[25.53142,45.430067,0.0],[25.53142,45.429974,0.0],[25.531452,45.429974,0.0]]]],"type":"MultiPolygon"},"properties":{"stare":"Existent","operator":"Transgaz","detalii":"Împrejmuiri - E.T. Brașov","_s":{"f":"#4daf4a","fo":0.0,"s":"#4daf4a","so":1.0,"w":3.63,"r":5.0},"_c":0}},{"type":"Feature","geometry":{"coordinates":[[[[25.520062,45.449373,0.0],[25.52008,45.449386,0.0],[25.520098,45.449373,0.0],[25.52008,45.44936,0.0],[25.520062,45.449373,0.0]]]],"type":"MultiPolygon"},"properties":{"stare":"Existent","operator":"Transgaz","detalii":"Împrejmuiri - E.T. Brașov","_s":{"f":"#4daf4a","fo":0.0,"s":"#4daf4a","so":1.0,"w":3.63,"r":5.0},"_c":0}},{"type":"Feature","geometry":{"coordinates":[[[[25.519927,45.449272,0.0],[25.519964,45.449297,0.0],[25.52,45.449272,0.0],[25.519963,45.449246,0.0],[25.519927,45.449272,0.0]]]],"type":"MultiPolygon"},"properties":{"stare":"Existent","operator":"Transgaz","detalii":"Împrejmuiri - E.T. Brașov","_s":{"f":"#4daf4a","fo":0.0,"s":"#4daf4a","so":1.0,"w":3.63,"r":5.0},"_c":0}},{"type":"Feature","geometry":{"coordinates":[[[[25.523715,45.410351,0.0],[25.523695,45.410363,0.0],[25.523728,45.41039,0.0],[25.523748,45.410378,0.0],[25.523715,45.410351,0.0]]]],"type":"MultiPolygon"},"properties":{"stare":"Existent","operator":"Transgaz","detalii":"Împrejmuiri - E.T. Brașov","_s":{"f":"#4daf4a","fo":0.0,"s":"#4daf4a","so":1.0,"w":3.63,"r":5.0},"_c":0}},{"type":"Feature","geometry":{"coordinates":[[[[25.522972,45.409779,0.0],[25.52298,45.409772,0.0],[25.522965,45.409763,0.0],[25.522957,45.409771,0.0],[25.522972,45.409779,0.0]]]],"type":"MultiPolygon"},"properties":{"stare":"Existent","operator":"Transgaz","detalii":"Împrejmuiri - E.T. Brașov","_s":{"f":"#4daf4a","fo":0.0,"s":"#4daf4a","so":1.0,"w":3.63,"r":5.0},"_c":0}}]}